{
  "type": "FeatureCollection",
  "features": [
    {
      "type": "Feature",
      "properties": {
        "stroke": "#00f",
        "stroke-width": 5,
        "stroke-dash": [20,10,5,20],
        "stroke-opacity": 1,
        "fill": "#ff00ff",
        "fill-opacity": 0.2
      },
      "geometry": {
        "coordinates": [
          
            [-110.43812517334288, 50.93002759068813],
            [-131.47766705937636, 25.531591309527016],
            [-78.90847160609798, 20.27614762669596],
            [-68.06690415016595, 43.721890471684816],
            [-97.44488189587071, 51.99955837310611]
          
        ],
        "type": "LineString"
      },
      "id": 0
    }
  ]
}
