{
"type": "FeatureCollection",
"name": "tnmDerivedNames",
"crs": { "type": "name", "properties": { "name": "urn:ogc:def:crs:EPSG::4269" } },
"features": [
{ "type": "Feature", "properties": { "GAZ_ID": "1660309", "GAZ_NAME": "Bard", "GAZ_FEATUR": "Populated Place", "FEATURE_CO": "99904", "GAZ_ELEVAT": "42", "DATELASTED": null, "ISCONFLATE": "1", "GAZ_CELLID": "2390", "POPULATION": "0", "SEQUENCE": "0", "GLOBALID": "{6CE7366E-551A-4061-9288-D56E0C5B67A8}" }, "geometry": { "type": "MultiPoint", "coordinates": [ [ -114.556062, 32.789212, 0.0 ] ] } },
{ "type": "Feature", "properties": { "GAZ_ID": "1661334", "GAZ_NAME": "Ross Corner", "GAZ_FEATUR": "Populated Place", "FEATURE_CO": "99904", "GAZ_ELEVAT": "40", "DATELASTED": null, "ISCONFLATE": "1", "GAZ_CELLID": "2390", "POPULATION": "0", "SEQUENCE": "0", "GLOBALID": "{FE9F914A-038F-4AFA-B559-48757C0F1859}" }, "geometry": { "type": "MultiPoint", "coordinates": [ [ -114.59023, 32.781434, 0.0 ] ] } },
{ "type": "Feature", "properties": { "GAZ_ID": "44989", "GAZ_NAME": "San Dionysio (historical)", "GAZ_FEATUR": "Populated Place", "FEATURE_CO": "99904", "GAZ_ELEVAT": "40", "DATELASTED": null, "ISCONFLATE": "1", "GAZ_CELLID": "2390", "POPULATION": "0", "SEQUENCE": "0", "GLOBALID": "{0EE2D690-B804-4F25-BD27-0B4E773A2FF3}" }, "geometry": { "type": "MultiPoint", "coordinates": [ [ -114.567451, 32.751435, 0.0 ] ] } },
{ "type": "Feature", "properties": { "GAZ_ID": "1660400", "GAZ_NAME": "Buzzards Peak", "GAZ_FEATUR": "Summit", "FEATURE_CO": "15048", "GAZ_ELEVAT": "367", "DATELASTED": null, "ISCONFLATE": "1", "GAZ_CELLID": "6532", "POPULATION": "0", "SEQUENCE": "0", "GLOBALID": "{B714DB3F-423A-4583-8880-A09F5FC5D726}" }, "geometry": { "type": "MultiPoint", "coordinates": [ [ -114.864686, 33.142815, 0.0 ] ] } },
{ "type": "Feature", "properties": { "GAZ_ID": "251978", "GAZ_NAME": "Algodones Dunes", "GAZ_FEATUR": "Summit", "FEATURE_CO": "15048", "GAZ_ELEVAT": "101", "DATELASTED": null, "ISCONFLATE": "1", "GAZ_CELLID": "17361", "POPULATION": "0", "SEQUENCE": "0", "GLOBALID": "{8C0A4A02-5FE1-4578-AA92-4C02D5FC0E29}" }, "geometry": { "type": "MultiPoint", "coordinates": [ [ -114.875241, 32.751436, 0.0 ] ] } },
{ "type": "Feature", "properties": { "GAZ_ID": "247468", "GAZ_NAME": "Pilot Knob Mesa", "GAZ_FEATUR": "Summit", "FEATURE_CO": "15048", "GAZ_ELEVAT": "212", "DATELASTED": null, "ISCONFLATE": "1", "GAZ_CELLID": "50198", "POPULATION": "0", "SEQUENCE": "0", "GLOBALID": "{41961115-5EF9-463D-8071-7B3AEE0FCD62}" }, "geometry": { "type": "MultiPoint", "coordinates": [ [ -114.904131, 32.851156, 0.0 ] ] } },
{ "type": "Feature", "properties": { "GAZ_ID": "1660405", "GAZ_NAME": "Cactus", "GAZ_FEATUR": "Populated Place", "FEATURE_CO": "99904", "GAZ_ELEVAT": "120", "DATELASTED": null, "ISCONFLATE": "1", "GAZ_CELLID": "6605", "POPULATION": "0", "SEQUENCE": "0", "GLOBALID": "{8D5CF004-E557-48AB-BD69-8287275DF92C}" }, "geometry": { "type": "MultiPoint", "coordinates": [ [ -114.896909, 32.862267, 0.0 ] ] } },
{ "type": "Feature", "properties": { "GAZ_ID": "241779", "GAZ_NAME": "East Mesa", "GAZ_FEATUR": "Summit", "FEATURE_CO": "15048", "GAZ_ELEVAT": "27", "DATELASTED": null, "ISCONFLATE": "1", "GAZ_CELLID": "902", "POPULATION": "0", "SEQUENCE": "0", "GLOBALID": "{56FFCDD2-D2B5-4D75-9C52-9409B4AF7C64}" }, "geometry": { "type": "MultiPoint", "coordinates": [ [ -114.989413, 32.764769, 0.0 ] ] } },
{ "type": "Feature", "properties": { "GAZ_ID": "24371", "GAZ_NAME": "Cibola", "GAZ_FEATUR": "Populated Place", "FEATURE_CO": "99904", "GAZ_ELEVAT": "74", "DATELASTED": "2008\/03\/21", "ISCONFLATE": "1", "GAZ_CELLID": "8752", "POPULATION": "0", "SEQUENCE": "0", "GLOBALID": "{2DE0D589-DC4B-4FDB-9629-4F95F3F30ABD}" }, "geometry": { "type": "MultiPoint", "coordinates": [ [ -114.664957, 33.316422, 0.0 ] ] } },
{ "type": "Feature", "properties": { "GAZ_ID": "24030", "GAZ_NAME": "Long Bend", "GAZ_FEATUR": "Bend", "FEATURE_CO": "15016", "GAZ_ELEVAT": "67", "DATELASTED": null, "ISCONFLATE": "1", "GAZ_CELLID": "8752", "POPULATION": "0", "SEQUENCE": "0", "GLOBALID": "{B4CE5AA1-C952-41EF-BECB-235FED6780E2}" }, "geometry": { "type": "MultiPoint", "coordinates": [ [ -114.700791, 33.300033, 0.0 ] ] } },
{ "type": "Feature", "properties": { "GAZ_ID": "8556", "GAZ_NAME": "Needles Eye", "GAZ_FEATUR": "Arch", "FEATURE_CO": "15002", "GAZ_ELEVAT": "755", "DATELASTED": "2010\/05\/25", "ISCONFLATE": "1", "GAZ_CELLID": "8753", "POPULATION": "0", "SEQUENCE": "0", "GLOBALID": "{80B5390F-57DD-4098-9966-02CC709CAE2F}" }, "geometry": { "type": "MultiPoint", "coordinates": [ [ -114.562731, 33.280312, 0.0 ] ] } },
{ "type": "Feature", "properties": { "GAZ_ID": "1656463", "GAZ_NAME": "Clyde", "GAZ_FEATUR": "Populated Place", "FEATURE_CO": "99904", "GAZ_ELEVAT": "120", "DATELASTED": null, "ISCONFLATE": "1", "GAZ_CELLID": "9300", "POPULATION": "0", "SEQUENCE": "0", "GLOBALID": "{1C59C8B4-3BE1-44B6-B51D-DF1200185A21}" }, "geometry": { "type": "MultiPoint", "coordinates": [ [ -114.966079, 32.91671, 0.0 ] ] } },
{ "type": "Feature", "properties": { "GAZ_ID": "4632", "GAZ_NAME": "Fishers Landing", "GAZ_FEATUR": "Populated Place", "FEATURE_CO": "99904", "GAZ_ELEVAT": "62", "DATELASTED": null, "ISCONFLATE": "1", "GAZ_CELLID": "21750", "POPULATION": "0", "SEQUENCE": "0", "GLOBALID": "{D7D69B00-4B81-49D3-9DFE-9C4BEE34698F}" }, "geometry": { "type": "MultiPoint", "coordinates": [ [ -114.463559, 32.972818, 0.0 ] ] } },
{ "type": "Feature", "properties": { "GAZ_ID": "24347", "GAZ_NAME": "Castle Dome Landing", "GAZ_FEATUR": "Populated Place", "FEATURE_CO": "99904", "GAZ_ELEVAT": "62", "DATELASTED": null, "ISCONFLATE": "1", "GAZ_CELLID": "21750", "POPULATION": "0", "SEQUENCE": "0", "GLOBALID": "{3A15C296-3FE2-4A37-B8A4-8FDFF4E371A2}" }, "geometry": { "type": "MultiPoint", "coordinates": [ [ -114.463559, 32.965041, 0.0 ] ] } },
{ "type": "Feature", "properties": { "GAZ_ID": "6835", "GAZ_NAME": "Laguna Dam", "GAZ_FEATUR": "Dam", "FEATURE_CO": "34300", "GAZ_ELEVAT": "45", "DATELASTED": null, "ISCONFLATE": "1", "GAZ_CELLID": "70612", "POPULATION": "0", "SEQUENCE": null, "GLOBALID": "{E4E603A3-0A11-41B5-9AA2-CA80DD73038D}" }, "geometry": { "type": "MultiPoint", "coordinates": [ [ -114.494115, 32.8231, 0.0 ] ] } },
{ "type": "Feature", "properties": { "GAZ_ID": "6837", "GAZ_NAME": "Laguna Mountains", "GAZ_FEATUR": "Summit", "FEATURE_CO": "15048", "GAZ_ELEVAT": "159", "DATELASTED": null, "ISCONFLATE": "1", "GAZ_CELLID": "70612", "POPULATION": "0", "SEQUENCE": "0", "GLOBALID": "{65963B30-F947-4AC8-AB2A-6B8C68514694}" }, "geometry": { "type": "MultiPoint", "coordinates": [ [ -114.446892, 32.784489, 0.0 ] ] } },
{ "type": "Feature", "properties": { "GAZ_ID": "24481", "GAZ_NAME": "Kinter", "GAZ_FEATUR": "Populated Place", "FEATURE_CO": "99904", "GAZ_ELEVAT": "56", "DATELASTED": null, "ISCONFLATE": "1", "GAZ_CELLID": "70612", "POPULATION": "0", "SEQUENCE": "0", "GLOBALID": "{D3997218-06BB-48D3-8952-32E95BC08B70}" }, "geometry": { "type": "MultiPoint", "coordinates": [ [ -114.398001, 32.757268, 0.0 ] ] } },
{ "type": "Feature", "properties": { "GAZ_ID": "11912", "GAZ_NAME": "Sugarloaf", "GAZ_FEATUR": "Summit", "FEATURE_CO": "15048", "GAZ_ELEVAT": "171", "DATELASTED": null, "ISCONFLATE": "1", "GAZ_CELLID": "70612", "POPULATION": "0", "SEQUENCE": "0", "GLOBALID": "{6BB0A81B-CDB7-4F7C-A1D0-8D1A098C920B}" }, "geometry": { "type": "MultiPoint", "coordinates": [ [ -114.485782, 32.791989, 0.0 ] ] } },
{ "type": "Feature", "properties": { "GAZ_ID": "24021", "GAZ_NAME": "Reedy Bend", "GAZ_FEATUR": "Bend", "FEATURE_CO": "15016", "GAZ_ELEVAT": "48", "DATELASTED": null, "ISCONFLATE": "1", "GAZ_CELLID": "70612", "POPULATION": "0", "SEQUENCE": "0", "GLOBALID": "{488EE787-4007-45DE-A3CF-613F73682F36}" }, "geometry": { "type": "MultiPoint", "coordinates": [ [ -114.467448, 32.833377, 0.0 ] ] } },
{ "type": "Feature", "properties": { "GAZ_ID": "25329", "GAZ_NAME": "Laguna", "GAZ_FEATUR": "Populated Place", "FEATURE_CO": "99904", "GAZ_ELEVAT": "48", "DATELASTED": null, "ISCONFLATE": "1", "GAZ_CELLID": "70612", "POPULATION": "0", "SEQUENCE": "0", "GLOBALID": "{25D8A292-9AC9-4968-9398-CBCEF0869998}" }, "geometry": { "type": "MultiPoint", "coordinates": [ [ -114.485504, 32.818933, 0.0 ] ] } },
{ "type": "Feature", "properties": { "GAZ_ID": "42817", "GAZ_NAME": "Boot Peak", "GAZ_FEATUR": "Summit", "FEATURE_CO": "15048", "GAZ_ELEVAT": "284", "DATELASTED": null, "ISCONFLATE": "1", "GAZ_CELLID": "70612", "POPULATION": "0", "SEQUENCE": "0", "GLOBALID": "{29237F4F-ADC9-46EC-9ACE-9F81B22812B4}" }, "geometry": { "type": "MultiPoint", "coordinates": [ [ -114.398835, 32.791989, 0.0 ] ] } },
{ "type": "Feature", "properties": { "GAZ_ID": "24485", "GAZ_NAME": "Kool Corner", "GAZ_FEATUR": "Populated Place", "FEATURE_CO": "99904", "GAZ_ELEVAT": "47", "DATELASTED": null, "ISCONFLATE": "1", "GAZ_CELLID": "70612", "POPULATION": "0", "SEQUENCE": "0", "GLOBALID": "{DBC2456D-13A8-449B-BB7E-18FBF23B5B4F}" }, "geometry": { "type": "MultiPoint", "coordinates": [ [ -114.499393, 32.8006, 0.0 ] ] } },
{ "type": "Feature", "properties": { "GAZ_ID": "7857", "GAZ_NAME": "McPhaul Bridge", "GAZ_FEATUR": "Bridge", "FEATURE_CO": "81012", "GAZ_ELEVAT": "49", "DATELASTED": null, "ISCONFLATE": "1", "GAZ_CELLID": "70612", "POPULATION": "0", "SEQUENCE": "0", "GLOBALID": "{B0E6CD6A-3971-4058-BDB7-CCAF90AA53D6}" }, "geometry": { "type": "MultiPoint", "coordinates": [ [ -114.421335, 32.75949, 0.0 ] ] } },
{ "type": "Feature", "properties": { "GAZ_ID": "244936", "GAZ_NAME": "Little Picacho Peak", "GAZ_FEATUR": "Summit", "FEATURE_CO": "15048", "GAZ_ELEVAT": "266", "DATELASTED": null, "ISCONFLATE": "1", "GAZ_CELLID": "70711", "POPULATION": "0", "SEQUENCE": "0", "GLOBALID": "{11345F7E-5786-4741-94C6-F12C84063A99}" }, "geometry": { "type": "MultiPoint", "coordinates": [ [ -114.553563, 32.996985, 0.0 ] ] } },
{ "type": "Feature", "properties": { "GAZ_ID": "24024", "GAZ_NAME": "Precipice Bend", "GAZ_FEATUR": "Bend", "FEATURE_CO": "15016", "GAZ_ELEVAT": "64", "DATELASTED": null, "ISCONFLATE": "1", "GAZ_CELLID": "70711", "POPULATION": "0", "SEQUENCE": "0", "GLOBALID": "{4BDE9DEE-C2D4-4BD2-BFF9-0840FE995F82}" }, "geometry": { "type": "MultiPoint", "coordinates": [ [ -114.500505, 32.966707, 0.0 ] ] } },
{ "type": "Feature", "properties": { "GAZ_ID": "8167", "GAZ_NAME": "Mohave Peak", "GAZ_FEATUR": "Summit", "FEATURE_CO": "15048", "GAZ_ELEVAT": "840", "DATELASTED": null, "ISCONFLATE": "1", "GAZ_CELLID": "29755", "POPULATION": "0", "SEQUENCE": "0", "GLOBALID": "{6AD9DA90-3EA5-45A7-8B7F-4D3313BEE061}" }, "geometry": { "type": "MultiPoint", "coordinates": [ [ -114.491618, 33.276701, 0.0 ] ] } },
{ "type": "Feature", "properties": { "GAZ_ID": "1660800", "GAZ_NAME": "Inperial Gables", "GAZ_FEATUR": "Populated Place", "FEATURE_CO": "99904", "GAZ_ELEVAT": "391", "DATELASTED": null, "ISCONFLATE": "1", "GAZ_CELLID": "30485", "POPULATION": "0", "SEQUENCE": "0", "GLOBALID": "{D4A1152E-2D13-4415-A327-1A6E4B51B36E}" }, "geometry": { "type": "MultiPoint", "coordinates": [ [ -114.929133, 33.127538, 0.0 ] ] } },
{ "type": "Feature", "properties": { "GAZ_ID": "239013", "GAZ_NAME": "Mount Barrow", "GAZ_FEATUR": "Summit", "FEATURE_CO": "15048", "GAZ_ELEVAT": "659", "DATELASTED": null, "ISCONFLATE": "1", "GAZ_CELLID": "30485", "POPULATION": "0", "SEQUENCE": "0", "GLOBALID": "{BF44F55F-45C2-408B-8A72-528EAC90B2C9}" }, "geometry": { "type": "MultiPoint", "coordinates": [ [ -114.945244, 33.150037, 0.0 ] ] } },
{ "type": "Feature", "properties": { "GAZ_ID": "251960", "GAZ_NAME": "Sawtooth Mountain", "GAZ_FEATUR": "Summit", "FEATURE_CO": "15048", "GAZ_ELEVAT": "439", "DATELASTED": null, "ISCONFLATE": "1", "GAZ_CELLID": "30485", "POPULATION": "0", "SEQUENCE": "0", "GLOBALID": "{E37398F5-B4CA-44D4-AD7D-DEE16453C11A}" }, "geometry": { "type": "MultiPoint", "coordinates": [ [ -114.97469, 33.168925, 0.0 ] ] } },
{ "type": "Feature", "properties": { "GAZ_ID": "11647", "GAZ_NAME": "South Trigo Peaks", "GAZ_FEATUR": "Summit", "FEATURE_CO": "15048", "GAZ_ELEVAT": "368", "DATELASTED": null, "ISCONFLATE": "1", "GAZ_CELLID": "45667", "POPULATION": "0", "SEQUENCE": "0", "GLOBALID": "{F83C6F1D-3281-455D-BE00-2E0620FD5411}" }, "geometry": { "type": "MultiPoint", "coordinates": [ [ -114.38356, 33.426974, 0.0 ] ] } },
{ "type": "Feature", "properties": { "GAZ_ID": "8792", "GAZ_NAME": "North Trigo Peaks", "GAZ_FEATUR": "Summit", "FEATURE_CO": "15048", "GAZ_ELEVAT": "638", "DATELASTED": null, "ISCONFLATE": "1", "GAZ_CELLID": "32480", "POPULATION": "0", "SEQUENCE": "0", "GLOBALID": "{98D4DBE8-6718-4262-94D7-137F6302066E}" }, "geometry": { "type": "MultiPoint", "coordinates": [ [ -114.418839, 33.466973, 0.0 ] ] } },
{ "type": "Feature", "properties": { "GAZ_ID": "2025251", "GAZ_NAME": "Felicity Post Office", "GAZ_FEATUR": "Post Office", "FEATURE_CO": "78006", "GAZ_ELEVAT": "86", "DATELASTED": "20070116114433", "ISCONFLATE": "1", "GAZ_CELLID": "32966", "POPULATION": "0", "SEQUENCE": "0", "GLOBALID": "{7BB4FC6D-F673-4C40-96A4-D95A9C85234F}" }, "geometry": { "type": "MultiPoint", "coordinates": [ [ -114.765, 32.750278, 0.0 ] ] } },
{ "type": "Feature", "properties": { "GAZ_ID": "249993", "GAZ_NAME": "Stud Mountain", "GAZ_FEATUR": "Summit", "FEATURE_CO": "15048", "GAZ_ELEVAT": "613", "DATELASTED": null, "ISCONFLATE": "1", "GAZ_CELLID": "32966", "POPULATION": "0", "SEQUENCE": "0", "GLOBALID": "{E69FB85F-DE84-4D6B-87A5-47ED54CB8391}" }, "geometry": { "type": "MultiPoint", "coordinates": [ [ -114.75218, 32.857544, 0.0 ] ] } },
{ "type": "Feature", "properties": { "GAZ_ID": "252950", "GAZ_NAME": "Ogilby", "GAZ_FEATUR": "Populated Place", "FEATURE_CO": "99904", "GAZ_ELEVAT": "111", "DATELASTED": null, "ISCONFLATE": "1", "GAZ_CELLID": "32966", "POPULATION": "0", "SEQUENCE": "0", "GLOBALID": "{762C4D64-3C77-41F1-9291-7981ECD28902}" }, "geometry": { "type": "MultiPoint", "coordinates": [ [ -114.83885, 32.81699, 0.0 ] ] } },
{ "type": "Feature", "properties": { "GAZ_ID": "247468", "GAZ_NAME": "Pilot Knob Mesa", "GAZ_FEATUR": "Summit", "FEATURE_CO": "15048", "GAZ_ELEVAT": "212", "DATELASTED": null, "ISCONFLATE": "1", "GAZ_CELLID": "50198", "POPULATION": "0", "SEQUENCE": "0", "GLOBALID": "{B67D0F25-45F9-400F-8F3C-33F07A081723}" }, "geometry": { "type": "MultiPoint", "coordinates": [ [ -114.842184, 32.785324, 0.0 ] ] } },
{ "type": "Feature", "properties": { "GAZ_ID": "1661199", "GAZ_NAME": "Pasadena Peak", "GAZ_FEATUR": "Summit", "FEATURE_CO": "15048", "GAZ_ELEVAT": "468", "DATELASTED": null, "ISCONFLATE": "1", "GAZ_CELLID": "32966", "POPULATION": "0", "SEQUENCE": "0", "GLOBALID": "{B592D5CD-30EA-47DE-AF69-8BBA570701DD}" }, "geometry": { "type": "MultiPoint", "coordinates": [ [ -114.775792, 32.849489, 0.0 ] ] } },
{ "type": "Feature", "properties": { "GAZ_ID": "1661133", "GAZ_NAME": "Obregon", "GAZ_FEATUR": "Populated Place", "FEATURE_CO": "99904", "GAZ_ELEVAT": "202", "DATELASTED": null, "ISCONFLATE": "1", "GAZ_CELLID": "32966", "POPULATION": "0", "SEQUENCE": "0", "GLOBALID": "{A9DE3814-A108-4F69-A069-C50BAFFA6B39}" }, "geometry": { "type": "MultiPoint", "coordinates": [ [ -114.789126, 32.8581, 0.0 ] ] } },
{ "type": "Feature", "properties": { "GAZ_ID": "1660571", "GAZ_NAME": "Dunes", "GAZ_FEATUR": "Populated Place", "FEATURE_CO": "99904", "GAZ_ELEVAT": "101", "DATELASTED": null, "ISCONFLATE": "1", "GAZ_CELLID": "32966", "POPULATION": "0", "SEQUENCE": "0", "GLOBALID": "{10217E0C-3238-455A-8E7D-1E927372ECD1}" }, "geometry": { "type": "MultiPoint", "coordinates": [ [ -114.797181, 32.783102, 0.0 ] ] } },
{ "type": "Feature", "properties": { "GAZ_ID": "247293", "GAZ_NAME": "Pasadena Mountain", "GAZ_FEATUR": "Summit", "FEATURE_CO": "15048", "GAZ_ELEVAT": "438", "DATELASTED": null, "ISCONFLATE": "1", "GAZ_CELLID": "32966", "POPULATION": "0", "SEQUENCE": "0", "GLOBALID": "{246F47E9-BA8C-43D2-8766-8BCBACE5DA33}" }, "geometry": { "type": "MultiPoint", "coordinates": [ [ -114.763847, 32.820323, 0.0 ] ] } },
{ "type": "Feature", "properties": { "GAZ_ID": "1868150", "GAZ_NAME": "Cibola Bridge", "GAZ_FEATUR": "Bridge", "FEATURE_CO": "81012", "GAZ_ELEVAT": "71", "DATELASTED": null, "ISCONFLATE": "1", "GAZ_CELLID": "71168", "POPULATION": "0", "SEQUENCE": "0", "GLOBALID": "{14F27DB9-E6D4-402E-888D-7D1DDC01CE34}" }, "geometry": { "type": "MultiPoint", "coordinates": [ [ -114.657735, 33.413085, 0.0 ] ] } },
{ "type": "Feature", "properties": { "GAZ_ID": "2928", "GAZ_NAME": "Cibola Bridge", "GAZ_FEATUR": "Bridge", "FEATURE_CO": "81012", "GAZ_ELEVAT": "71", "DATELASTED": null, "ISCONFLATE": "1", "GAZ_CELLID": "71168", "POPULATION": "0", "SEQUENCE": "0", "GLOBALID": "{5A88FBCA-47BA-46BF-A572-62E6B4127395}" }, "geometry": { "type": "MultiPoint", "coordinates": [ [ -114.657735, 33.412808, 0.0 ] ] } },
{ "type": "Feature", "properties": { "GAZ_ID": "247170", "GAZ_NAME": "Palo Verde", "GAZ_FEATUR": "Populated Place", "FEATURE_CO": "99904", "GAZ_ELEVAT": "71", "DATELASTED": "20080321145829", "ISCONFLATE": "1", "GAZ_CELLID": "71168", "POPULATION": "0", "SEQUENCE": "0", "GLOBALID": "{BE4286EB-F9D1-4707-BF8A-89B08C6CE0AF}" }, "geometry": { "type": "MultiPoint", "coordinates": [ [ -114.732181, 33.432807, 0.0 ] ] } },
{ "type": "Feature", "properties": { "GAZ_ID": "1667794", "GAZ_NAME": "Rannells (historical)", "GAZ_FEATUR": "Populated Place", "FEATURE_CO": "99904", "GAZ_ELEVAT": "74", "DATELASTED": null, "ISCONFLATE": "1", "GAZ_CELLID": "71168", "POPULATION": "0", "SEQUENCE": "0", "GLOBALID": "{F0562F78-A23A-4025-BF75-FC8F97D0797D}" }, "geometry": { "type": "MultiPoint", "coordinates": [ [ -114.708848, 33.489194, 0.0 ] ] } },
{ "type": "Feature", "properties": { "GAZ_ID": "247179", "GAZ_NAME": "Palo Verde Mesa", "GAZ_FEATUR": "Summit", "FEATURE_CO": "15048", "GAZ_ELEVAT": "149", "DATELASTED": null, "ISCONFLATE": "1", "GAZ_CELLID": "28304", "POPULATION": "0", "SEQUENCE": "0", "GLOBALID": "{E37B909B-4939-45AB-8EF3-8DBA7DDD9D38}" }, "geometry": { "type": "MultiPoint", "coordinates": [ [ -114.748571, 33.475584, 0.0 ] ] } },
{ "type": "Feature", "properties": { "GAZ_ID": "242296", "GAZ_NAME": "Flat Tops", "GAZ_FEATUR": "Summit", "FEATURE_CO": "15048", "GAZ_ELEVAT": "449", "DATELASTED": null, "ISCONFLATE": "1", "GAZ_CELLID": "34043", "POPULATION": "0", "SEQUENCE": "0", "GLOBALID": "{D2A7A5B7-3E1E-4EF0-A9C2-49C592E1B097}" }, "geometry": { "type": "MultiPoint", "coordinates": [ [ -114.857463, 33.361698, 0.0 ] ] } },
{ "type": "Feature", "properties": { "GAZ_ID": "247181", "GAZ_NAME": "Palo Verde Peak", "GAZ_FEATUR": "Summit", "FEATURE_CO": "15048", "GAZ_ELEVAT": "500", "DATELASTED": null, "ISCONFLATE": "1", "GAZ_CELLID": "34043", "POPULATION": "0", "SEQUENCE": "0", "GLOBALID": "{EC3EF636-80A1-4371-AF79-1CA0DA08B01E}" }, "geometry": { "type": "MultiPoint", "coordinates": [ [ -114.776905, 33.329477, 0.0 ] ] } },
{ "type": "Feature", "properties": { "GAZ_ID": "2726161", "GAZ_NAME": "Whitley Bridge", "GAZ_FEATUR": "Arch", "FEATURE_CO": "15002", "GAZ_ELEVAT": "123", "DATELASTED": null, "ISCONFLATE": "1", "GAZ_CELLID": "35002", "POPULATION": "0", "SEQUENCE": "0", "GLOBALID": "{D5C5C014-B5B4-47CA-ADC7-E3BBAA977851}" }, "geometry": { "type": "MultiPoint", "coordinates": [ [ -114.581944, 33.002778, 0.0 ] ] } },
{ "type": "Feature", "properties": { "GAZ_ID": "24026", "GAZ_NAME": "Sleepers Bend", "GAZ_FEATUR": "Bend", "FEATURE_CO": "15016", "GAZ_ELEVAT": "154", "DATELASTED": null, "ISCONFLATE": "1", "GAZ_CELLID": "35002", "POPULATION": "0", "SEQUENCE": "0", "GLOBALID": "{71A89084-AED8-4D6B-B802-2B4864A03059}" }, "geometry": { "type": "MultiPoint", "coordinates": [ [ -114.534117, 33.016706, 0.0 ] ] } },
{ "type": "Feature", "properties": { "GAZ_ID": "24027", "GAZ_NAME": "Red Rock Gate", "GAZ_FEATUR": "Bend", "FEATURE_CO": "15016", "GAZ_ELEVAT": "59", "DATELASTED": null, "ISCONFLATE": "1", "GAZ_CELLID": "35002", "POPULATION": "0", "SEQUENCE": "0", "GLOBALID": "{FED7CC26-E63F-4FBB-81A9-0E60EC12C14D}" }, "geometry": { "type": "MultiPoint", "coordinates": [ [ -114.567452, 33.033373, 0.0 ] ] } },
{ "type": "Feature", "properties": { "GAZ_ID": "1661216", "GAZ_NAME": "Picacho", "GAZ_FEATUR": "Populated Place", "FEATURE_CO": "99904", "GAZ_ELEVAT": "62", "DATELASTED": null, "ISCONFLATE": "1", "GAZ_CELLID": "35002", "POPULATION": "0", "SEQUENCE": "0", "GLOBALID": "{514EC0B2-B040-4671-93E5-02E8580BD0FB}" }, "geometry": { "type": "MultiPoint", "coordinates": [ [ -114.611065, 33.023095, 0.0 ] ] } },
{ "type": "Feature", "properties": { "GAZ_ID": "252169", "GAZ_NAME": "Rojo Grande", "GAZ_FEATUR": "Summit", "FEATURE_CO": "15048", "GAZ_ELEVAT": "202", "DATELASTED": null, "ISCONFLATE": "1", "GAZ_CELLID": "35002", "POPULATION": "0", "SEQUENCE": "0", "GLOBALID": "{C9302C12-94C0-46B7-AC18-F33CBCD37AF8}" }, "geometry": { "type": "MultiPoint", "coordinates": [ [ -114.606065, 33.016707, 0.0 ] ] } },
{ "type": "Feature", "properties": { "GAZ_ID": "24028", "GAZ_NAME": "Three Point Bend", "GAZ_FEATUR": "Bend", "FEATURE_CO": "15016", "GAZ_ELEVAT": "116", "DATELASTED": null, "ISCONFLATE": "1", "GAZ_CELLID": "35002", "POPULATION": "0", "SEQUENCE": "0", "GLOBALID": "{5E42F3BF-7912-49D1-B7C5-5EB8C32F9D9F}" }, "geometry": { "type": "MultiPoint", "coordinates": [ [ -114.58412, 33.050039, 0.0 ] ] } },
{ "type": "Feature", "properties": { "GAZ_ID": "1667822", "GAZ_NAME": "Arrowweed Spring", "GAZ_FEATUR": "Spring", "FEATURE_CO": "45800", "GAZ_ELEVAT": "169", "DATELASTED": null, "ISCONFLATE": "1", "GAZ_CELLID": "35007", "POPULATION": "0", "SEQUENCE": "0", "GLOBALID": "{C063CA72-D364-40A8-91F4-9DB4E63F70AA}" }, "geometry": { "type": "MultiPoint", "coordinates": [ [ -114.746904, 33.193925, 0.0 ] ] } },
{ "type": "Feature", "properties": { "GAZ_ID": "1661203", "GAZ_NAME": "Paymaster Landing", "GAZ_FEATUR": "Populated Place", "FEATURE_CO": "99904", "GAZ_ELEVAT": "65", "DATELASTED": null, "ISCONFLATE": "1", "GAZ_CELLID": "35007", "POPULATION": "0", "SEQUENCE": "0", "GLOBALID": "{6F764BBC-F719-4DC0-8C2F-B147DBE35D5B}" }, "geometry": { "type": "MultiPoint", "coordinates": [ [ -114.68968, 33.245868, 0.0 ] ] } },
{ "type": "Feature", "properties": { "GAZ_ID": "1661217", "GAZ_NAME": "Picacho Peak", "GAZ_FEATUR": "Summit", "FEATURE_CO": "15048", "GAZ_ELEVAT": "399", "DATELASTED": null, "ISCONFLATE": "1", "GAZ_CELLID": "35010", "POPULATION": "0", "SEQUENCE": "0", "GLOBALID": "{67AB6D9B-1F06-4283-B043-88D96BDD9B01}" }, "geometry": { "type": "MultiPoint", "coordinates": [ [ -114.663567, 32.972541, 0.0 ] ] } },
{ "type": "Feature", "properties": { "GAZ_ID": "1661206", "GAZ_NAME": "Pebble Mountain", "GAZ_FEATUR": "Summit", "FEATURE_CO": "15048", "GAZ_ELEVAT": "307", "DATELASTED": null, "ISCONFLATE": "1", "GAZ_CELLID": "35010", "POPULATION": "0", "SEQUENCE": "0", "GLOBALID": "{F8C821E0-4F21-45F8-85A3-DD4B5929FFE8}" }, "geometry": { "type": "MultiPoint", "coordinates": [ [ -114.638288, 32.926709, 0.0 ] ] } },
{ "type": "Feature", "properties": { "GAZ_ID": "2726160", "GAZ_NAME": "Arturos Bridge", "GAZ_FEATUR": "Arch", "FEATURE_CO": "15002", "GAZ_ELEVAT": "257", "DATELASTED": null, "ISCONFLATE": "1", "GAZ_CELLID": "35010", "POPULATION": "0", "SEQUENCE": "0", "GLOBALID": "{8B7FE38E-3962-4DEF-9061-4DB1A8177A29}" }, "geometry": { "type": "MultiPoint", "coordinates": [ [ -114.650556, 32.940556, 0.0 ] ] } },
{ "type": "Feature", "properties": { "GAZ_ID": "24540", "GAZ_NAME": "Nortons Landing", "GAZ_FEATUR": "Populated Place", "FEATURE_CO": "99904", "GAZ_ELEVAT": "65", "DATELASTED": null, "ISCONFLATE": "1", "GAZ_CELLID": "35013", "POPULATION": "0", "SEQUENCE": "0", "GLOBALID": "{9CAA06AC-5E30-4C04-8642-AF28D1ADDB31}" }, "geometry": { "type": "MultiPoint", "coordinates": [ [ -114.644122, 33.050595, 0.0 ] ] } },
{ "type": "Feature", "properties": { "GAZ_ID": "24537", "GAZ_NAME": "Nommel Place", "GAZ_FEATUR": "Populated Place", "FEATURE_CO": "99904", "GAZ_ELEVAT": "68", "DATELASTED": null, "ISCONFLATE": "1", "GAZ_CELLID": "35013", "POPULATION": "0", "SEQUENCE": "0", "GLOBALID": "{C8D4946C-C86F-48D0-B90A-8991771BEF26}" }, "geometry": { "type": "MultiPoint", "coordinates": [ [ -114.687179, 33.082261, 0.0 ] ] } },
{ "type": "Feature", "properties": { "GAZ_ID": "240277", "GAZ_NAME": "Carrizo Spring", "GAZ_FEATUR": "Spring", "FEATURE_CO": "45800", "GAZ_ELEVAT": "97", "DATELASTED": null, "ISCONFLATE": "1", "GAZ_CELLID": "35013", "POPULATION": "0", "SEQUENCE": "0", "GLOBALID": "{E4127C78-87C5-4B82-A336-6F7ED66E7219}" }, "geometry": { "type": "MultiPoint", "coordinates": [ [ -114.688846, 33.021151, 0.0 ] ] } },
{ "type": "Feature", "properties": { "GAZ_ID": "247874", "GAZ_NAME": "Quartz Peak", "GAZ_FEATUR": "Summit", "FEATURE_CO": "15048", "GAZ_ELEVAT": "648", "DATELASTED": null, "ISCONFLATE": "1", "GAZ_CELLID": "36762", "POPULATION": "0", "SEQUENCE": "0", "GLOBALID": "{9B4DF354-0210-4249-81DD-78BC7BB29003}" }, "geometry": { "type": "MultiPoint", "coordinates": [ [ -114.823018, 33.089205, 0.0 ] ] } },
{ "type": "Feature", "properties": { "GAZ_ID": "247408", "GAZ_NAME": "Peter Kane Water Hole", "GAZ_FEATUR": "Spring", "FEATURE_CO": "45800", "GAZ_ELEVAT": "341", "DATELASTED": null, "ISCONFLATE": "1", "GAZ_CELLID": "36762", "POPULATION": "0", "SEQUENCE": "0", "GLOBALID": "{E4E477F9-501B-40DC-B3B9-E9E12192D228}" }, "geometry": { "type": "MultiPoint", "coordinates": [ [ -114.848019, 33.113094, 0.0 ] ] } },
{ "type": "Feature", "properties": { "GAZ_ID": "239421", "GAZ_NAME": "Black Mountain", "GAZ_FEATUR": "Summit", "FEATURE_CO": "15048", "GAZ_ELEVAT": "646", "DATELASTED": null, "ISCONFLATE": "1", "GAZ_CELLID": "36762", "POPULATION": "0", "SEQUENCE": "0", "GLOBALID": "{1DA35AA0-73A4-4E6B-9B20-417A01479D5A}" }, "geometry": { "type": "MultiPoint", "coordinates": [ [ -114.828296, 33.054762, 0.0 ] ] } },
{ "type": "Feature", "properties": { "GAZ_ID": "247407", "GAZ_NAME": "Peter Kane Mountain", "GAZ_FEATUR": "Summit", "FEATURE_CO": "15048", "GAZ_ELEVAT": "627", "DATELASTED": null, "ISCONFLATE": "1", "GAZ_CELLID": "36762", "POPULATION": "0", "SEQUENCE": "0", "GLOBALID": "{0B445C90-68D4-4F32-8356-1045FCC68FB3}" }, "geometry": { "type": "MultiPoint", "coordinates": [ [ -114.823018, 33.085039, 0.0 ] ] } },
{ "type": "Feature", "properties": { "GAZ_ID": "12722", "GAZ_NAME": "Trip Mountain", "GAZ_FEATUR": "Summit", "FEATURE_CO": "15048", "GAZ_ELEVAT": "579", "DATELASTED": null, "ISCONFLATE": "1", "GAZ_CELLID": "37333", "POPULATION": "0", "SEQUENCE": "0", "GLOBALID": "{AD7FB6A4-9BC7-4BD3-B8D0-122C074511B9}" }, "geometry": { "type": "MultiPoint", "coordinates": [ [ -114.443838, 33.222535, 0.0 ] ] } },
{ "type": "Feature", "properties": { "GAZ_ID": "10047", "GAZ_NAME": "Red Hill", "GAZ_FEATUR": "Summit", "FEATURE_CO": "15048", "GAZ_ELEVAT": "380", "DATELASTED": null, "ISCONFLATE": "1", "GAZ_CELLID": "37333", "POPULATION": "0", "SEQUENCE": "0", "GLOBALID": "{9BBF30D2-4F8A-4BEB-8268-2BDF4D1287E1}" }, "geometry": { "type": "MultiPoint", "coordinates": [ [ -114.432726, 33.15587, 0.0 ] ] } },
{ "type": "Feature", "properties": { "GAZ_ID": "2883", "GAZ_NAME": "Chocolate Mountains", "GAZ_FEATUR": "Summit", "FEATURE_CO": "15048", "GAZ_ELEVAT": "314", "DATELASTED": null, "ISCONFLATE": "1", "GAZ_CELLID": "37333", "POPULATION": "0", "SEQUENCE": "0", "GLOBALID": "{E9DF871D-1280-45DF-99DC-2C132CBF7D7C}" }, "geometry": { "type": "MultiPoint", "coordinates": [ [ -114.392169, 33.184758, 0.0 ] ] } },
{ "type": "Feature", "properties": { "GAZ_ID": "2883", "GAZ_NAME": "Chocolate Mountains", "GAZ_FEATUR": "Summit", "FEATURE_CO": "15048", "GAZ_ELEVAT": "314", "DATELASTED": null, "ISCONFLATE": "1", "GAZ_CELLID": "37333", "POPULATION": "0", "SEQUENCE": "0", "GLOBALID": "{B573EF96-1260-495E-A0D5-263F3BD9C1FD}" }, "geometry": { "type": "MultiPoint", "coordinates": [ [ -114.473283, 33.110871, 0.0 ] ] } },
{ "type": "Feature", "properties": { "GAZ_ID": "247179", "GAZ_NAME": "Palo Verde Mesa", "GAZ_FEATUR": "Summit", "FEATURE_CO": "15048", "GAZ_ELEVAT": "149", "DATELASTED": null, "ISCONFLATE": "1", "GAZ_CELLID": "28304", "POPULATION": "0", "SEQUENCE": "0", "GLOBALID": "{5F3240FE-A824-4883-B31E-4F394A1385C0}" }, "geometry": { "type": "MultiPoint", "coordinates": [ [ -114.774683, 33.468639, 0.0 ] ] } },
{ "type": "Feature", "properties": { "GAZ_ID": "240652", "GAZ_NAME": "Clapp Spring", "GAZ_FEATUR": "Spring", "FEATURE_CO": "45800", "GAZ_ELEVAT": "179", "DATELASTED": null, "ISCONFLATE": "1", "GAZ_CELLID": "45040", "POPULATION": "0", "SEQUENCE": "0", "GLOBALID": "{E916D7DE-9268-4225-BBAF-51698C915FBA}" }, "geometry": { "type": "MultiPoint", "coordinates": [ [ -114.85663, 33.411141, 0.0 ] ] } },
{ "type": "Feature", "properties": { "GAZ_ID": "250480", "GAZ_NAME": "Thumb Peak", "GAZ_FEATUR": "Summit", "FEATURE_CO": "15048", "GAZ_ELEVAT": "317", "DATELASTED": "20120313062711", "ISCONFLATE": "1", "GAZ_CELLID": "45040", "POPULATION": "0", "SEQUENCE": "0", "GLOBALID": "{7811C35F-7B12-43EA-8DCF-0BD9B2CFEF79}" }, "geometry": { "type": "MultiPoint", "coordinates": [ [ -114.866352, 33.406385, 0.0 ] ] } },
{ "type": "Feature", "properties": { "GAZ_ID": "1660309", "GAZ_NAME": "Bard", "GAZ_FEATUR": "Populated Place", "FEATURE_CO": "99904", "GAZ_ELEVAT": "42", "DATELASTED": null, "ISCONFLATE": "1", "GAZ_CELLID": "2390", "POPULATION": "0", "SEQUENCE": "0", "GLOBALID": null }, "geometry": { "type": "MultiPoint", "coordinates": [ [ -114.556062, 32.789212, 0.0 ] ] } },
{ "type": "Feature", "properties": { "GAZ_ID": "1661334", "GAZ_NAME": "Ross Corner", "GAZ_FEATUR": "Populated Place", "FEATURE_CO": "99904", "GAZ_ELEVAT": "40", "DATELASTED": "2016\/12\/15", "ISCONFLATE": "1", "GAZ_CELLID": "2390", "POPULATION": "0", "SEQUENCE": "0", "GLOBALID": null }, "geometry": { "type": "MultiPoint", "coordinates": [ [ -114.59023, 32.781434, 0.0 ] ] } },
{ "type": "Feature", "properties": { "GAZ_ID": "2769323", "GAZ_NAME": "Bard Post Office", "GAZ_FEATUR": "Post Office", "FEATURE_CO": "78006", "GAZ_ELEVAT": "42", "DATELASTED": "2018\/02\/08", "ISCONFLATE": "3", "GAZ_CELLID": "2390", "POPULATION": "0", "SEQUENCE": "0", "GLOBALID": null }, "geometry": { "type": "MultiPoint", "coordinates": [ [ -114.555819, 32.795432, 0.0 ] ] } },
{ "type": "Feature", "properties": { "GAZ_ID": "1660400", "GAZ_NAME": "Buzzards Peak", "GAZ_FEATUR": "Summit", "FEATURE_CO": "15048", "GAZ_ELEVAT": "367", "DATELASTED": "2016\/11\/15", "ISCONFLATE": "1", "GAZ_CELLID": "6532", "POPULATION": "0", "SEQUENCE": "0", "GLOBALID": null }, "geometry": { "type": "MultiPoint", "coordinates": [ [ -114.864686, 33.142815, 0.0 ] ] } },
{ "type": "Feature", "properties": { "GAZ_ID": "241779", "GAZ_NAME": "East Mesa", "GAZ_FEATUR": "Summit", "FEATURE_CO": "15048", "GAZ_ELEVAT": "27", "DATELASTED": null, "ISCONFLATE": "1", "GAZ_CELLID": "902", "POPULATION": "0", "SEQUENCE": "0", "GLOBALID": null }, "geometry": { "type": "MultiPoint", "coordinates": [ [ -114.989413, 32.764769, 0.0 ] ] } },
{ "type": "Feature", "properties": { "GAZ_ID": "1660405", "GAZ_NAME": "Cactus", "GAZ_FEATUR": "Populated Place", "FEATURE_CO": "99904", "GAZ_ELEVAT": "120", "DATELASTED": null, "ISCONFLATE": "1", "GAZ_CELLID": "6605", "POPULATION": "0", "SEQUENCE": "0", "GLOBALID": null }, "geometry": { "type": "MultiPoint", "coordinates": [ [ -114.896909, 32.862267, 0.0 ] ] } },
{ "type": "Feature", "properties": { "GAZ_ID": "247468", "GAZ_NAME": "Pilot Knob Mesa", "GAZ_FEATUR": "Summit", "FEATURE_CO": "15048", "GAZ_ELEVAT": "212", "DATELASTED": null, "ISCONFLATE": "1", "GAZ_CELLID": "50198", "POPULATION": "0", "SEQUENCE": "0", "GLOBALID": null }, "geometry": { "type": "MultiPoint", "coordinates": [ [ -114.904131, 32.851156, 0.0 ] ] } },
{ "type": "Feature", "properties": { "GAZ_ID": "251978", "GAZ_NAME": "Algodones Dunes", "GAZ_FEATUR": "Summit", "FEATURE_CO": "15048", "GAZ_ELEVAT": "101", "DATELASTED": null, "ISCONFLATE": "1", "GAZ_CELLID": "17361", "POPULATION": "0", "SEQUENCE": "0", "GLOBALID": null }, "geometry": { "type": "MultiPoint", "coordinates": [ [ -114.875241, 32.751436, 0.0 ] ] } },
{ "type": "Feature", "properties": { "GAZ_ID": "24030", "GAZ_NAME": "Long Bend", "GAZ_FEATUR": "Bend", "FEATURE_CO": "15016", "GAZ_ELEVAT": "67", "DATELASTED": null, "ISCONFLATE": "1", "GAZ_CELLID": "8752", "POPULATION": "0", "SEQUENCE": "0", "GLOBALID": null }, "geometry": { "type": "MultiPoint", "coordinates": [ [ -114.700791, 33.300033, 0.0 ] ] } },
{ "type": "Feature", "properties": { "GAZ_ID": "8556", "GAZ_NAME": "Needles Eye", "GAZ_FEATUR": "Arch", "FEATURE_CO": "15002", "GAZ_ELEVAT": "755", "DATELASTED": "2010\/05\/25", "ISCONFLATE": "1", "GAZ_CELLID": "8753", "POPULATION": "0", "SEQUENCE": "0", "GLOBALID": null }, "geometry": { "type": "MultiPoint", "coordinates": [ [ -114.562731, 33.280312, 0.0 ] ] } },
{ "type": "Feature", "properties": { "GAZ_ID": "1656463", "GAZ_NAME": "Clyde", "GAZ_FEATUR": "Populated Place", "FEATURE_CO": "99904", "GAZ_ELEVAT": "120", "DATELASTED": "2016\/07\/22", "ISCONFLATE": "1", "GAZ_CELLID": "9300", "POPULATION": "0", "SEQUENCE": "0", "GLOBALID": null }, "geometry": { "type": "MultiPoint", "coordinates": [ [ -114.966079, 32.91671, 0.0 ] ] } },
{ "type": "Feature", "properties": { "GAZ_ID": "4632", "GAZ_NAME": "Fishers Landing", "GAZ_FEATUR": "Populated Place", "FEATURE_CO": "99904", "GAZ_ELEVAT": "62", "DATELASTED": null, "ISCONFLATE": "1", "GAZ_CELLID": "21750", "POPULATION": "0", "SEQUENCE": "0", "GLOBALID": null }, "geometry": { "type": "MultiPoint", "coordinates": [ [ -114.463559, 32.972818, 0.0 ] ] } },
{ "type": "Feature", "properties": { "GAZ_ID": "11912", "GAZ_NAME": "Sugarloaf", "GAZ_FEATUR": "Summit", "FEATURE_CO": "15048", "GAZ_ELEVAT": "171", "DATELASTED": null, "ISCONFLATE": "1", "GAZ_CELLID": "70612", "POPULATION": "0", "SEQUENCE": "0", "GLOBALID": null }, "geometry": { "type": "MultiPoint", "coordinates": [ [ -114.485782, 32.791989, 0.0 ] ] } },
{ "type": "Feature", "properties": { "GAZ_ID": "25329", "GAZ_NAME": "Laguna", "GAZ_FEATUR": "Populated Place", "FEATURE_CO": "99904", "GAZ_ELEVAT": "48", "DATELASTED": null, "ISCONFLATE": "1", "GAZ_CELLID": "70612", "POPULATION": "0", "SEQUENCE": "0", "GLOBALID": null }, "geometry": { "type": "MultiPoint", "coordinates": [ [ -114.485504, 32.818933, 0.0 ] ] } },
{ "type": "Feature", "properties": { "GAZ_ID": "24481", "GAZ_NAME": "Kinter", "GAZ_FEATUR": "Populated Place", "FEATURE_CO": "99904", "GAZ_ELEVAT": "56", "DATELASTED": null, "ISCONFLATE": "1", "GAZ_CELLID": "70612", "POPULATION": "0", "SEQUENCE": "0", "GLOBALID": null }, "geometry": { "type": "MultiPoint", "coordinates": [ [ -114.398001, 32.757268, 0.0 ] ] } },
{ "type": "Feature", "properties": { "GAZ_ID": "6837", "GAZ_NAME": "Laguna Mountains", "GAZ_FEATUR": "Summit", "FEATURE_CO": "15048", "GAZ_ELEVAT": "159", "DATELASTED": null, "ISCONFLATE": "1", "GAZ_CELLID": "70612", "POPULATION": "0", "SEQUENCE": "0", "GLOBALID": null }, "geometry": { "type": "MultiPoint", "coordinates": [ [ -114.446892, 32.784489, 0.0 ] ] } },
{ "type": "Feature", "properties": { "GAZ_ID": "7857", "GAZ_NAME": "McPhaul Bridge", "GAZ_FEATUR": "Bridge", "FEATURE_CO": "81012", "GAZ_ELEVAT": "49", "DATELASTED": null, "ISCONFLATE": "1", "GAZ_CELLID": "70612", "POPULATION": "0", "SEQUENCE": "0", "GLOBALID": null }, "geometry": { "type": "MultiPoint", "coordinates": [ [ -114.421335, 32.75949, 0.0 ] ] } },
{ "type": "Feature", "properties": { "GAZ_ID": "6835", "GAZ_NAME": "Laguna Dam", "GAZ_FEATUR": "Dam", "FEATURE_CO": "34300", "GAZ_ELEVAT": "45", "DATELASTED": null, "ISCONFLATE": "1", "GAZ_CELLID": "70612", "POPULATION": "0", "SEQUENCE": "0", "GLOBALID": null }, "geometry": { "type": "MultiPoint", "coordinates": [ [ -114.494115, 32.8231, 0.0 ] ] } },
{ "type": "Feature", "properties": { "GAZ_ID": "24021", "GAZ_NAME": "Reedy Bend", "GAZ_FEATUR": "Bend", "FEATURE_CO": "15016", "GAZ_ELEVAT": "48", "DATELASTED": null, "ISCONFLATE": "1", "GAZ_CELLID": "70612", "POPULATION": "0", "SEQUENCE": "0", "GLOBALID": null }, "geometry": { "type": "MultiPoint", "coordinates": [ [ -114.467448, 32.833377, 0.0 ] ] } },
{ "type": "Feature", "properties": { "GAZ_ID": "42817", "GAZ_NAME": "Boot Peak", "GAZ_FEATUR": "Summit", "FEATURE_CO": "15048", "GAZ_ELEVAT": "284", "DATELASTED": null, "ISCONFLATE": "1", "GAZ_CELLID": "70612", "POPULATION": "0", "SEQUENCE": "0", "GLOBALID": null }, "geometry": { "type": "MultiPoint", "coordinates": [ [ -114.398835, 32.791989, 0.0 ] ] } },
{ "type": "Feature", "properties": { "GAZ_ID": "244936", "GAZ_NAME": "Little Picacho Peak", "GAZ_FEATUR": "Summit", "FEATURE_CO": "15048", "GAZ_ELEVAT": "266", "DATELASTED": "2016\/11\/30", "ISCONFLATE": "1", "GAZ_CELLID": "70711", "POPULATION": "0", "SEQUENCE": "0", "GLOBALID": null }, "geometry": { "type": "MultiPoint", "coordinates": [ [ -114.553563, 32.996985, 0.0 ] ] } },
{ "type": "Feature", "properties": { "GAZ_ID": "24024", "GAZ_NAME": "Precipice Bend", "GAZ_FEATUR": "Bend", "FEATURE_CO": "15016", "GAZ_ELEVAT": "64", "DATELASTED": null, "ISCONFLATE": "1", "GAZ_CELLID": "70711", "POPULATION": "0", "SEQUENCE": "0", "GLOBALID": null }, "geometry": { "type": "MultiPoint", "coordinates": [ [ -114.500505, 32.966707, 0.0 ] ] } },
{ "type": "Feature", "properties": { "GAZ_ID": "8167", "GAZ_NAME": "Mohave Peak", "GAZ_FEATUR": "Summit", "FEATURE_CO": "15048", "GAZ_ELEVAT": "840", "DATELASTED": null, "ISCONFLATE": "1", "GAZ_CELLID": "29755", "POPULATION": "0", "SEQUENCE": "0", "GLOBALID": null }, "geometry": { "type": "MultiPoint", "coordinates": [ [ -114.491618, 33.276701, 0.0 ] ] } },
{ "type": "Feature", "properties": { "GAZ_ID": "239013", "GAZ_NAME": "Mount Barrow", "GAZ_FEATUR": "Summit", "FEATURE_CO": "15048", "GAZ_ELEVAT": "659", "DATELASTED": "2016\/12\/06", "ISCONFLATE": "1", "GAZ_CELLID": "30485", "POPULATION": "0", "SEQUENCE": "0", "GLOBALID": null }, "geometry": { "type": "MultiPoint", "coordinates": [ [ -114.945244, 33.150037, 0.0 ] ] } },
{ "type": "Feature", "properties": { "GAZ_ID": "251960", "GAZ_NAME": "Sawtooth Mountain", "GAZ_FEATUR": "Summit", "FEATURE_CO": "15048", "GAZ_ELEVAT": "439", "DATELASTED": null, "ISCONFLATE": "1", "GAZ_CELLID": "30485", "POPULATION": "0", "SEQUENCE": "0", "GLOBALID": null }, "geometry": { "type": "MultiPoint", "coordinates": [ [ -114.97469, 33.168925, 0.0 ] ] } },
{ "type": "Feature", "properties": { "GAZ_ID": "1660800", "GAZ_NAME": "Inperial Gables", "GAZ_FEATUR": "Populated Place", "FEATURE_CO": "99904", "GAZ_ELEVAT": "391", "DATELASTED": null, "ISCONFLATE": "1", "GAZ_CELLID": "30485", "POPULATION": "0", "SEQUENCE": "0", "GLOBALID": null }, "geometry": { "type": "MultiPoint", "coordinates": [ [ -114.929133, 33.127538, 0.0 ] ] } },
{ "type": "Feature", "properties": { "GAZ_ID": "8792", "GAZ_NAME": "North Trigo Peaks", "GAZ_FEATUR": "Summit", "FEATURE_CO": "15048", "GAZ_ELEVAT": "638", "DATELASTED": null, "ISCONFLATE": "1", "GAZ_CELLID": "32480", "POPULATION": "0", "SEQUENCE": "0", "GLOBALID": null }, "geometry": { "type": "MultiPoint", "coordinates": [ [ -114.418839, 33.466973, 0.0 ] ] } },
{ "type": "Feature", "properties": { "GAZ_ID": "11647", "GAZ_NAME": "South Trigo Peaks", "GAZ_FEATUR": "Summit", "FEATURE_CO": "15048", "GAZ_ELEVAT": "368", "DATELASTED": null, "ISCONFLATE": "1", "GAZ_CELLID": "45667", "POPULATION": "0", "SEQUENCE": "0", "GLOBALID": null }, "geometry": { "type": "MultiPoint", "coordinates": [ [ -114.38356, 33.426974, 0.0 ] ] } },
{ "type": "Feature", "properties": { "GAZ_ID": "1660571", "GAZ_NAME": "Dunes", "GAZ_FEATUR": "Populated Place", "FEATURE_CO": "99904", "GAZ_ELEVAT": "101", "DATELASTED": "2016\/11\/15", "ISCONFLATE": "1", "GAZ_CELLID": "32966", "POPULATION": "0", "SEQUENCE": "0", "GLOBALID": null }, "geometry": { "type": "MultiPoint", "coordinates": [ [ -114.797181, 32.783102, 0.0 ] ] } },
{ "type": "Feature", "properties": { "GAZ_ID": "1661199", "GAZ_NAME": "Pasadena Peak", "GAZ_FEATUR": "Summit", "FEATURE_CO": "15048", "GAZ_ELEVAT": "468", "DATELASTED": null, "ISCONFLATE": "1", "GAZ_CELLID": "32966", "POPULATION": "0", "SEQUENCE": "0", "GLOBALID": null }, "geometry": { "type": "MultiPoint", "coordinates": [ [ -114.775792, 32.849489, 0.0 ] ] } },
{ "type": "Feature", "properties": { "GAZ_ID": "2025252", "GAZ_NAME": "Felicity", "GAZ_FEATUR": "Populated Place", "FEATURE_CO": "99904", "GAZ_ELEVAT": "86", "DATELASTED": "2007\/01\/15", "ISCONFLATE": "1", "GAZ_CELLID": "70351", "POPULATION": "0", "SEQUENCE": "0", "GLOBALID": null }, "geometry": { "type": "MultiPoint", "coordinates": [ [ -114.7653, 32.7503, 0.0 ] ] } },
{ "type": "Feature", "properties": { "GAZ_ID": "247293", "GAZ_NAME": "Pasadena Mountain", "GAZ_FEATUR": "Summit", "FEATURE_CO": "15048", "GAZ_ELEVAT": "438", "DATELASTED": "2016\/12\/13", "ISCONFLATE": "1", "GAZ_CELLID": "32966", "POPULATION": "0", "SEQUENCE": "0", "GLOBALID": null }, "geometry": { "type": "MultiPoint", "coordinates": [ [ -114.763847, 32.820323, 0.0 ] ] } },
{ "type": "Feature", "properties": { "GAZ_ID": "247468", "GAZ_NAME": "Pilot Knob Mesa", "GAZ_FEATUR": "Summit", "FEATURE_CO": "15048", "GAZ_ELEVAT": "212", "DATELASTED": null, "ISCONFLATE": "1", "GAZ_CELLID": "50198", "POPULATION": "0", "SEQUENCE": "0", "GLOBALID": null }, "geometry": { "type": "MultiPoint", "coordinates": [ [ -114.842184, 32.785324, 0.0 ] ] } },
{ "type": "Feature", "properties": { "GAZ_ID": "1661133", "GAZ_NAME": "Obregon", "GAZ_FEATUR": "Populated Place", "FEATURE_CO": "99904", "GAZ_ELEVAT": "202", "DATELASTED": null, "ISCONFLATE": "1", "GAZ_CELLID": "32966", "POPULATION": "0", "SEQUENCE": "0", "GLOBALID": null }, "geometry": { "type": "MultiPoint", "coordinates": [ [ -114.789126, 32.8581, 0.0 ] ] } },
{ "type": "Feature", "properties": { "GAZ_ID": "2025251", "GAZ_NAME": "Felicity Post Office", "GAZ_FEATUR": "Post Office", "FEATURE_CO": "78006", "GAZ_ELEVAT": "86", "DATELASTED": "2007\/01\/16", "ISCONFLATE": "1", "GAZ_CELLID": "32966", "POPULATION": "0", "SEQUENCE": "0", "GLOBALID": null }, "geometry": { "type": "MultiPoint", "coordinates": [ [ -114.765, 32.750278, 0.0 ] ] } },
{ "type": "Feature", "properties": { "GAZ_ID": "249993", "GAZ_NAME": "Stud Mountain", "GAZ_FEATUR": "Summit", "FEATURE_CO": "15048", "GAZ_ELEVAT": "613", "DATELASTED": null, "ISCONFLATE": "1", "GAZ_CELLID": "32966", "POPULATION": "0", "SEQUENCE": "0", "GLOBALID": null }, "geometry": { "type": "MultiPoint", "coordinates": [ [ -114.75218, 32.857544, 0.0 ] ] } },
{ "type": "Feature", "properties": { "GAZ_ID": "252950", "GAZ_NAME": "Ogilby", "GAZ_FEATUR": "Populated Place", "FEATURE_CO": "99904", "GAZ_ELEVAT": "111", "DATELASTED": "2016\/12\/13", "ISCONFLATE": "1", "GAZ_CELLID": "32966", "POPULATION": "0", "SEQUENCE": "0", "GLOBALID": null }, "geometry": { "type": "MultiPoint", "coordinates": [ [ -114.83885, 32.81699, 0.0 ] ] } },
{ "type": "Feature", "properties": { "GAZ_ID": "1868150", "GAZ_NAME": "Cibola Bridge", "GAZ_FEATUR": "Bridge", "FEATURE_CO": "81012", "GAZ_ELEVAT": "71", "DATELASTED": null, "ISCONFLATE": "1", "GAZ_CELLID": "71168", "POPULATION": "0", "SEQUENCE": "0", "GLOBALID": null }, "geometry": { "type": "MultiPoint", "coordinates": [ [ -114.657735, 33.413085, 0.0 ] ] } },
{ "type": "Feature", "properties": { "GAZ_ID": "2769464", "GAZ_NAME": "Palo Verde Post Office", "GAZ_FEATUR": "Post Office", "FEATURE_CO": "78006", "GAZ_ELEVAT": "71", "DATELASTED": "2018\/02\/08", "ISCONFLATE": "3", "GAZ_CELLID": "71168", "POPULATION": "0", "SEQUENCE": "0", "GLOBALID": null }, "geometry": { "type": "MultiPoint", "coordinates": [ [ -114.732732, 33.432679, 0.0 ] ] } },
{ "type": "Feature", "properties": { "GAZ_ID": "247179", "GAZ_NAME": "Palo Verde Mesa", "GAZ_FEATUR": "Summit", "FEATURE_CO": "15048", "GAZ_ELEVAT": "149", "DATELASTED": null, "ISCONFLATE": "1", "GAZ_CELLID": "28304", "POPULATION": "0", "SEQUENCE": "0", "GLOBALID": null }, "geometry": { "type": "MultiPoint", "coordinates": [ [ -114.748571, 33.475584, 0.0 ] ] } },
{ "type": "Feature", "properties": { "GAZ_ID": "2928", "GAZ_NAME": "Cibola Bridge", "GAZ_FEATUR": "Bridge", "FEATURE_CO": "81012", "GAZ_ELEVAT": "71", "DATELASTED": null, "ISCONFLATE": "1", "GAZ_CELLID": "71168", "POPULATION": "0", "SEQUENCE": "0", "GLOBALID": null }, "geometry": { "type": "MultiPoint", "coordinates": [ [ -114.657735, 33.412808, 0.0 ] ] } },
{ "type": "Feature", "properties": { "GAZ_ID": "247181", "GAZ_NAME": "Palo Verde Peak", "GAZ_FEATUR": "Summit", "FEATURE_CO": "15048", "GAZ_ELEVAT": "500", "DATELASTED": null, "ISCONFLATE": "1", "GAZ_CELLID": "34043", "POPULATION": "0", "SEQUENCE": "0", "GLOBALID": null }, "geometry": { "type": "MultiPoint", "coordinates": [ [ -114.776905, 33.329477, 0.0 ] ] } },
{ "type": "Feature", "properties": { "GAZ_ID": "242296", "GAZ_NAME": "Flat Tops", "GAZ_FEATUR": "Summit", "FEATURE_CO": "15048", "GAZ_ELEVAT": "449", "DATELASTED": null, "ISCONFLATE": "1", "GAZ_CELLID": "34043", "POPULATION": "0", "SEQUENCE": "0", "GLOBALID": null }, "geometry": { "type": "MultiPoint", "coordinates": [ [ -114.857463, 33.361698, 0.0 ] ] } },
{ "type": "Feature", "properties": { "GAZ_ID": "24028", "GAZ_NAME": "Three Point Bend", "GAZ_FEATUR": "Bend", "FEATURE_CO": "15016", "GAZ_ELEVAT": "116", "DATELASTED": null, "ISCONFLATE": "1", "GAZ_CELLID": "35002", "POPULATION": "0", "SEQUENCE": "0", "GLOBALID": null }, "geometry": { "type": "MultiPoint", "coordinates": [ [ -114.58412, 33.050039, 0.0 ] ] } },
{ "type": "Feature", "properties": { "GAZ_ID": "24027", "GAZ_NAME": "Red Rock Gate", "GAZ_FEATUR": "Bend", "FEATURE_CO": "15016", "GAZ_ELEVAT": "59", "DATELASTED": null, "ISCONFLATE": "1", "GAZ_CELLID": "35002", "POPULATION": "0", "SEQUENCE": "0", "GLOBALID": null }, "geometry": { "type": "MultiPoint", "coordinates": [ [ -114.567452, 33.033373, 0.0 ] ] } },
{ "type": "Feature", "properties": { "GAZ_ID": "252169", "GAZ_NAME": "Rojo Grande", "GAZ_FEATUR": "Summit", "FEATURE_CO": "15048", "GAZ_ELEVAT": "202", "DATELASTED": null, "ISCONFLATE": "1", "GAZ_CELLID": "35002", "POPULATION": "0", "SEQUENCE": "0", "GLOBALID": null }, "geometry": { "type": "MultiPoint", "coordinates": [ [ -114.606065, 33.016707, 0.0 ] ] } },
{ "type": "Feature", "properties": { "GAZ_ID": "2726161", "GAZ_NAME": "Whitley Bridge", "GAZ_FEATUR": "Arch", "FEATURE_CO": "15002", "GAZ_ELEVAT": "123", "DATELASTED": null, "ISCONFLATE": "1", "GAZ_CELLID": "35002", "POPULATION": "0", "SEQUENCE": "0", "GLOBALID": null }, "geometry": { "type": "MultiPoint", "coordinates": [ [ -114.581944, 33.002778, 0.0 ] ] } },
{ "type": "Feature", "properties": { "GAZ_ID": "1661216", "GAZ_NAME": "Picacho", "GAZ_FEATUR": "Populated Place", "FEATURE_CO": "99904", "GAZ_ELEVAT": "62", "DATELASTED": "2016\/12\/13", "ISCONFLATE": "1", "GAZ_CELLID": "35002", "POPULATION": "0", "SEQUENCE": "0", "GLOBALID": null }, "geometry": { "type": "MultiPoint", "coordinates": [ [ -114.611065, 33.023095, 0.0 ] ] } },
{ "type": "Feature", "properties": { "GAZ_ID": "24026", "GAZ_NAME": "Sleepers Bend", "GAZ_FEATUR": "Bend", "FEATURE_CO": "15016", "GAZ_ELEVAT": "154", "DATELASTED": null, "ISCONFLATE": "1", "GAZ_CELLID": "35002", "POPULATION": "0", "SEQUENCE": "0", "GLOBALID": null }, "geometry": { "type": "MultiPoint", "coordinates": [ [ -114.534117, 33.016706, 0.0 ] ] } },
{ "type": "Feature", "properties": { "GAZ_ID": "1667822", "GAZ_NAME": "Arrowweed Spring", "GAZ_FEATUR": "Spring", "FEATURE_CO": "45800", "GAZ_ELEVAT": "169", "DATELASTED": "2016\/10\/31", "ISCONFLATE": "1", "GAZ_CELLID": "35007", "POPULATION": "0", "SEQUENCE": "0", "GLOBALID": null }, "geometry": { "type": "MultiPoint", "coordinates": [ [ -114.746904, 33.193925, 0.0 ] ] } },
{ "type": "Feature", "properties": { "GAZ_ID": "1661203", "GAZ_NAME": "Paymaster Landing", "GAZ_FEATUR": "Populated Place", "FEATURE_CO": "99904", "GAZ_ELEVAT": "65", "DATELASTED": null, "ISCONFLATE": "1", "GAZ_CELLID": "35007", "POPULATION": "0", "SEQUENCE": "0", "GLOBALID": null }, "geometry": { "type": "MultiPoint", "coordinates": [ [ -114.68968, 33.245868, 0.0 ] ] } },
{ "type": "Feature", "properties": { "GAZ_ID": "2726160", "GAZ_NAME": "Arturos Bridge", "GAZ_FEATUR": "Arch", "FEATURE_CO": "15002", "GAZ_ELEVAT": "257", "DATELASTED": null, "ISCONFLATE": "1", "GAZ_CELLID": "35010", "POPULATION": "0", "SEQUENCE": "0", "GLOBALID": null }, "geometry": { "type": "MultiPoint", "coordinates": [ [ -114.650556, 32.940556, 0.0 ] ] } },
{ "type": "Feature", "properties": { "GAZ_ID": "1661217", "GAZ_NAME": "Picacho Peak", "GAZ_FEATUR": "Summit", "FEATURE_CO": "15048", "GAZ_ELEVAT": "399", "DATELASTED": null, "ISCONFLATE": "1", "GAZ_CELLID": "35010", "POPULATION": "0", "SEQUENCE": "0", "GLOBALID": null }, "geometry": { "type": "MultiPoint", "coordinates": [ [ -114.663567, 32.972541, 0.0 ] ] } },
{ "type": "Feature", "properties": { "GAZ_ID": "1661206", "GAZ_NAME": "Pebble Mountain", "GAZ_FEATUR": "Summit", "FEATURE_CO": "15048", "GAZ_ELEVAT": "307", "DATELASTED": null, "ISCONFLATE": "1", "GAZ_CELLID": "35010", "POPULATION": "0", "SEQUENCE": "0", "GLOBALID": null }, "geometry": { "type": "MultiPoint", "coordinates": [ [ -114.638288, 32.926709, 0.0 ] ] } },
{ "type": "Feature", "properties": { "GAZ_ID": "240277", "GAZ_NAME": "Carrizo Spring", "GAZ_FEATUR": "Spring", "FEATURE_CO": "45800", "GAZ_ELEVAT": "97", "DATELASTED": null, "ISCONFLATE": "1", "GAZ_CELLID": "35013", "POPULATION": "0", "SEQUENCE": "0", "GLOBALID": null }, "geometry": { "type": "MultiPoint", "coordinates": [ [ -114.688846, 33.021151, 0.0 ] ] } },
{ "type": "Feature", "properties": { "GAZ_ID": "247874", "GAZ_NAME": "Quartz Peak", "GAZ_FEATUR": "Summit", "FEATURE_CO": "15048", "GAZ_ELEVAT": "648", "DATELASTED": "2016\/12\/13", "ISCONFLATE": "1", "GAZ_CELLID": "36762", "POPULATION": "0", "SEQUENCE": "0", "GLOBALID": null }, "geometry": { "type": "MultiPoint", "coordinates": [ [ -114.823018, 33.089205, 0.0 ] ] } },
{ "type": "Feature", "properties": { "GAZ_ID": "247408", "GAZ_NAME": "Peter Kane Water Hole", "GAZ_FEATUR": "Spring", "FEATURE_CO": "45800", "GAZ_ELEVAT": "341", "DATELASTED": "2016\/12\/13", "ISCONFLATE": "1", "GAZ_CELLID": "36762", "POPULATION": "0", "SEQUENCE": "0", "GLOBALID": null }, "geometry": { "type": "MultiPoint", "coordinates": [ [ -114.848019, 33.113094, 0.0 ] ] } },
{ "type": "Feature", "properties": { "GAZ_ID": "239421", "GAZ_NAME": "Black Mountain", "GAZ_FEATUR": "Summit", "FEATURE_CO": "15048", "GAZ_ELEVAT": "646", "DATELASTED": null, "ISCONFLATE": "1", "GAZ_CELLID": "36762", "POPULATION": "0", "SEQUENCE": "0", "GLOBALID": null }, "geometry": { "type": "MultiPoint", "coordinates": [ [ -114.828296, 33.054762, 0.0 ] ] } },
{ "type": "Feature", "properties": { "GAZ_ID": "247407", "GAZ_NAME": "Peter Kane Mountain", "GAZ_FEATUR": "Summit", "FEATURE_CO": "15048", "GAZ_ELEVAT": "627", "DATELASTED": null, "ISCONFLATE": "1", "GAZ_CELLID": "36762", "POPULATION": "0", "SEQUENCE": "0", "GLOBALID": null }, "geometry": { "type": "MultiPoint", "coordinates": [ [ -114.823018, 33.085039, 0.0 ] ] } },
{ "type": "Feature", "properties": { "GAZ_ID": "12722", "GAZ_NAME": "Trip Mountain", "GAZ_FEATUR": "Summit", "FEATURE_CO": "15048", "GAZ_ELEVAT": "579", "DATELASTED": null, "ISCONFLATE": "1", "GAZ_CELLID": "37333", "POPULATION": "0", "SEQUENCE": "0", "GLOBALID": null }, "geometry": { "type": "MultiPoint", "coordinates": [ [ -114.443838, 33.222535, 0.0 ] ] } },
{ "type": "Feature", "properties": { "GAZ_ID": "10047", "GAZ_NAME": "Red Hill", "GAZ_FEATUR": "Summit", "FEATURE_CO": "15048", "GAZ_ELEVAT": "380", "DATELASTED": null, "ISCONFLATE": "1", "GAZ_CELLID": "37333", "POPULATION": "0", "SEQUENCE": "0", "GLOBALID": null }, "geometry": { "type": "MultiPoint", "coordinates": [ [ -114.432726, 33.15587, 0.0 ] ] } },
{ "type": "Feature", "properties": { "GAZ_ID": "2883", "GAZ_NAME": "Chocolate Mountains", "GAZ_FEATUR": "Summit", "FEATURE_CO": "15048", "GAZ_ELEVAT": "314", "DATELASTED": null, "ISCONFLATE": "1", "GAZ_CELLID": "37333", "POPULATION": "0", "SEQUENCE": "0", "GLOBALID": null }, "geometry": { "type": "MultiPoint", "coordinates": [ [ -114.392169, 33.184758, 0.0 ] ] } },
{ "type": "Feature", "properties": { "GAZ_ID": "2883", "GAZ_NAME": "Chocolate Mountains", "GAZ_FEATUR": "Summit", "FEATURE_CO": "15048", "GAZ_ELEVAT": "314", "DATELASTED": null, "ISCONFLATE": "1", "GAZ_CELLID": "37333", "POPULATION": "0", "SEQUENCE": "0", "GLOBALID": null }, "geometry": { "type": "MultiPoint", "coordinates": [ [ -114.473283, 33.110871, 0.0 ] ] } },
{ "type": "Feature", "properties": { "GAZ_ID": "250480", "GAZ_NAME": "Thumb Peak", "GAZ_FEATUR": "Summit", "FEATURE_CO": "15048", "GAZ_ELEVAT": "317", "DATELASTED": "2012\/03\/13", "ISCONFLATE": "1", "GAZ_CELLID": "45040", "POPULATION": "0", "SEQUENCE": "0", "GLOBALID": null }, "geometry": { "type": "MultiPoint", "coordinates": [ [ -114.866352, 33.406385, 0.0 ] ] } },
{ "type": "Feature", "properties": { "GAZ_ID": "247179", "GAZ_NAME": "Palo Verde Mesa", "GAZ_FEATUR": "Summit", "FEATURE_CO": "15048", "GAZ_ELEVAT": "149", "DATELASTED": null, "ISCONFLATE": "1", "GAZ_CELLID": "28304", "POPULATION": "0", "SEQUENCE": "0", "GLOBALID": null }, "geometry": { "type": "MultiPoint", "coordinates": [ [ -114.774683, 33.468639, 0.0 ] ] } },
{ "type": "Feature", "properties": { "GAZ_ID": "240652", "GAZ_NAME": "Clapp Spring", "GAZ_FEATUR": "Spring", "FEATURE_CO": "45800", "GAZ_ELEVAT": "179", "DATELASTED": "2016\/07\/22", "ISCONFLATE": "1", "GAZ_CELLID": "45040", "POPULATION": "0", "SEQUENCE": "0", "GLOBALID": null }, "geometry": { "type": "MultiPoint", "coordinates": [ [ -114.85663, 33.411141, 0.0 ] ] } },
{ "type": "Feature", "properties": { "GAZ_ID": "1660309", "GAZ_NAME": "Bard", "GAZ_FEATUR": "Populated Place", "FEATURE_CO": "99904", "GAZ_ELEVAT": "42", "DATELASTED": null, "ISCONFLATE": "1", "GAZ_CELLID": "2390", "POPULATION": "0", "SEQUENCE": "0", "GLOBALID": null }, "geometry": { "type": "MultiPoint", "coordinates": [ [ -114.556062, 32.789212, 0.0 ] ] } },
{ "type": "Feature", "properties": { "GAZ_ID": "1661334", "GAZ_NAME": "Ross Corner", "GAZ_FEATUR": "Populated Place", "FEATURE_CO": "99904", "GAZ_ELEVAT": "40", "DATELASTED": "2016\/12\/15", "ISCONFLATE": "1", "GAZ_CELLID": "2390", "POPULATION": "0", "SEQUENCE": "0", "GLOBALID": null }, "geometry": { "type": "MultiPoint", "coordinates": [ [ -114.59023, 32.781434, 0.0 ] ] } },
{ "type": "Feature", "properties": { "GAZ_ID": "2769323", "GAZ_NAME": "Bard Post Office", "GAZ_FEATUR": "Post Office", "FEATURE_CO": "78006", "GAZ_ELEVAT": "42", "DATELASTED": "2018\/02\/08", "ISCONFLATE": "3", "GAZ_CELLID": "2390", "POPULATION": "0", "SEQUENCE": "0", "GLOBALID": null }, "geometry": { "type": "MultiPoint", "coordinates": [ [ -114.555819, 32.795432, 0.0 ] ] } },
{ "type": "Feature", "properties": { "GAZ_ID": "1660400", "GAZ_NAME": "Buzzards Peak", "GAZ_FEATUR": "Summit", "FEATURE_CO": "15048", "GAZ_ELEVAT": "367", "DATELASTED": "2016\/11\/15", "ISCONFLATE": "1", "GAZ_CELLID": "6532", "POPULATION": "0", "SEQUENCE": "0", "GLOBALID": null }, "geometry": { "type": "MultiPoint", "coordinates": [ [ -114.864686, 33.142815, 0.0 ] ] } },
{ "type": "Feature", "properties": { "GAZ_ID": "241779", "GAZ_NAME": "East Mesa", "GAZ_FEATUR": "Summit", "FEATURE_CO": "15048", "GAZ_ELEVAT": "27", "DATELASTED": null, "ISCONFLATE": "1", "GAZ_CELLID": "902", "POPULATION": "0", "SEQUENCE": "0", "GLOBALID": null }, "geometry": { "type": "MultiPoint", "coordinates": [ [ -114.989413, 32.764769, 0.0 ] ] } },
{ "type": "Feature", "properties": { "GAZ_ID": "1660405", "GAZ_NAME": "Cactus", "GAZ_FEATUR": "Populated Place", "FEATURE_CO": "99904", "GAZ_ELEVAT": "120", "DATELASTED": null, "ISCONFLATE": "1", "GAZ_CELLID": "6605", "POPULATION": "0", "SEQUENCE": "0", "GLOBALID": null }, "geometry": { "type": "MultiPoint", "coordinates": [ [ -114.896909, 32.862267, 0.0 ] ] } },
{ "type": "Feature", "properties": { "GAZ_ID": "247468", "GAZ_NAME": "Pilot Knob Mesa", "GAZ_FEATUR": "Summit", "FEATURE_CO": "15048", "GAZ_ELEVAT": "212", "DATELASTED": null, "ISCONFLATE": "1", "GAZ_CELLID": "50198", "POPULATION": "0", "SEQUENCE": "0", "GLOBALID": null }, "geometry": { "type": "MultiPoint", "coordinates": [ [ -114.904131, 32.851156, 0.0 ] ] } },
{ "type": "Feature", "properties": { "GAZ_ID": "251978", "GAZ_NAME": "Algodones Dunes", "GAZ_FEATUR": "Summit", "FEATURE_CO": "15048", "GAZ_ELEVAT": "101", "DATELASTED": null, "ISCONFLATE": "1", "GAZ_CELLID": "17361", "POPULATION": "0", "SEQUENCE": "0", "GLOBALID": null }, "geometry": { "type": "MultiPoint", "coordinates": [ [ -114.875241, 32.751436, 0.0 ] ] } },
{ "type": "Feature", "properties": { "GAZ_ID": "24030", "GAZ_NAME": "Long Bend", "GAZ_FEATUR": "Bend", "FEATURE_CO": "15016", "GAZ_ELEVAT": "67", "DATELASTED": null, "ISCONFLATE": "1", "GAZ_CELLID": "8752", "POPULATION": "0", "SEQUENCE": "0", "GLOBALID": null }, "geometry": { "type": "MultiPoint", "coordinates": [ [ -114.700791, 33.300033, 0.0 ] ] } },
{ "type": "Feature", "properties": { "GAZ_ID": "8556", "GAZ_NAME": "Needles Eye", "GAZ_FEATUR": "Arch", "FEATURE_CO": "15002", "GAZ_ELEVAT": "755", "DATELASTED": "2010\/05\/25", "ISCONFLATE": "1", "GAZ_CELLID": "8753", "POPULATION": "0", "SEQUENCE": "0", "GLOBALID": null }, "geometry": { "type": "MultiPoint", "coordinates": [ [ -114.562731, 33.280312, 0.0 ] ] } },
{ "type": "Feature", "properties": { "GAZ_ID": "1656463", "GAZ_NAME": "Clyde", "GAZ_FEATUR": "Populated Place", "FEATURE_CO": "99904", "GAZ_ELEVAT": "120", "DATELASTED": "2016\/07\/22", "ISCONFLATE": "1", "GAZ_CELLID": "9300", "POPULATION": "0", "SEQUENCE": "0", "GLOBALID": null }, "geometry": { "type": "MultiPoint", "coordinates": [ [ -114.966079, 32.91671, 0.0 ] ] } },
{ "type": "Feature", "properties": { "GAZ_ID": "4632", "GAZ_NAME": "Fishers Landing", "GAZ_FEATUR": "Populated Place", "FEATURE_CO": "99904", "GAZ_ELEVAT": "62", "DATELASTED": null, "ISCONFLATE": "1", "GAZ_CELLID": "21750", "POPULATION": "0", "SEQUENCE": "0", "GLOBALID": null }, "geometry": { "type": "MultiPoint", "coordinates": [ [ -114.463559, 32.972818, 0.0 ] ] } },
{ "type": "Feature", "properties": { "GAZ_ID": "11912", "GAZ_NAME": "Sugarloaf", "GAZ_FEATUR": "Summit", "FEATURE_CO": "15048", "GAZ_ELEVAT": "171", "DATELASTED": null, "ISCONFLATE": "1", "GAZ_CELLID": "70612", "POPULATION": "0", "SEQUENCE": "0", "GLOBALID": null }, "geometry": { "type": "MultiPoint", "coordinates": [ [ -114.485782, 32.791989, 0.0 ] ] } },
{ "type": "Feature", "properties": { "GAZ_ID": "25329", "GAZ_NAME": "Laguna", "GAZ_FEATUR": "Populated Place", "FEATURE_CO": "99904", "GAZ_ELEVAT": "48", "DATELASTED": null, "ISCONFLATE": "1", "GAZ_CELLID": "70612", "POPULATION": "0", "SEQUENCE": "0", "GLOBALID": null }, "geometry": { "type": "MultiPoint", "coordinates": [ [ -114.485504, 32.818933, 0.0 ] ] } },
{ "type": "Feature", "properties": { "GAZ_ID": "24481", "GAZ_NAME": "Kinter", "GAZ_FEATUR": "Populated Place", "FEATURE_CO": "99904", "GAZ_ELEVAT": "56", "DATELASTED": null, "ISCONFLATE": "1", "GAZ_CELLID": "70612", "POPULATION": "0", "SEQUENCE": "0", "GLOBALID": null }, "geometry": { "type": "MultiPoint", "coordinates": [ [ -114.398001, 32.757268, 0.0 ] ] } },
{ "type": "Feature", "properties": { "GAZ_ID": "6837", "GAZ_NAME": "Laguna Mountains", "GAZ_FEATUR": "Summit", "FEATURE_CO": "15048", "GAZ_ELEVAT": "159", "DATELASTED": null, "ISCONFLATE": "1", "GAZ_CELLID": "70612", "POPULATION": "0", "SEQUENCE": "0", "GLOBALID": null }, "geometry": { "type": "MultiPoint", "coordinates": [ [ -114.446892, 32.784489, 0.0 ] ] } },
{ "type": "Feature", "properties": { "GAZ_ID": "7857", "GAZ_NAME": "McPhaul Bridge", "GAZ_FEATUR": "Bridge", "FEATURE_CO": "81012", "GAZ_ELEVAT": "49", "DATELASTED": null, "ISCONFLATE": "1", "GAZ_CELLID": "70612", "POPULATION": "0", "SEQUENCE": "0", "GLOBALID": null }, "geometry": { "type": "MultiPoint", "coordinates": [ [ -114.421335, 32.75949, 0.0 ] ] } },
{ "type": "Feature", "properties": { "GAZ_ID": "6835", "GAZ_NAME": "Laguna Dam", "GAZ_FEATUR": "Dam", "FEATURE_CO": "34300", "GAZ_ELEVAT": "45", "DATELASTED": null, "ISCONFLATE": "1", "GAZ_CELLID": "70612", "POPULATION": "0", "SEQUENCE": "0", "GLOBALID": null }, "geometry": { "type": "MultiPoint", "coordinates": [ [ -114.494115, 32.8231, 0.0 ] ] } },
{ "type": "Feature", "properties": { "GAZ_ID": "24021", "GAZ_NAME": "Reedy Bend", "GAZ_FEATUR": "Bend", "FEATURE_CO": "15016", "GAZ_ELEVAT": "48", "DATELASTED": null, "ISCONFLATE": "1", "GAZ_CELLID": "70612", "POPULATION": "0", "SEQUENCE": "0", "GLOBALID": null }, "geometry": { "type": "MultiPoint", "coordinates": [ [ -114.467448, 32.833377, 0.0 ] ] } },
{ "type": "Feature", "properties": { "GAZ_ID": "42817", "GAZ_NAME": "Boot Peak", "GAZ_FEATUR": "Summit", "FEATURE_CO": "15048", "GAZ_ELEVAT": "284", "DATELASTED": null, "ISCONFLATE": "1", "GAZ_CELLID": "70612", "POPULATION": "0", "SEQUENCE": "0", "GLOBALID": null }, "geometry": { "type": "MultiPoint", "coordinates": [ [ -114.398835, 32.791989, 0.0 ] ] } },
{ "type": "Feature", "properties": { "GAZ_ID": "244936", "GAZ_NAME": "Little Picacho Peak", "GAZ_FEATUR": "Summit", "FEATURE_CO": "15048", "GAZ_ELEVAT": "266", "DATELASTED": "2016\/11\/30", "ISCONFLATE": "1", "GAZ_CELLID": "70711", "POPULATION": "0", "SEQUENCE": "0", "GLOBALID": null }, "geometry": { "type": "MultiPoint", "coordinates": [ [ -114.553563, 32.996985, 0.0 ] ] } },
{ "type": "Feature", "properties": { "GAZ_ID": "24024", "GAZ_NAME": "Precipice Bend", "GAZ_FEATUR": "Bend", "FEATURE_CO": "15016", "GAZ_ELEVAT": "64", "DATELASTED": null, "ISCONFLATE": "1", "GAZ_CELLID": "70711", "POPULATION": "0", "SEQUENCE": "0", "GLOBALID": null }, "geometry": { "type": "MultiPoint", "coordinates": [ [ -114.500505, 32.966707, 0.0 ] ] } },
{ "type": "Feature", "properties": { "GAZ_ID": "8167", "GAZ_NAME": "Mohave Peak", "GAZ_FEATUR": "Summit", "FEATURE_CO": "15048", "GAZ_ELEVAT": "840", "DATELASTED": null, "ISCONFLATE": "1", "GAZ_CELLID": "29755", "POPULATION": "0", "SEQUENCE": "0", "GLOBALID": null }, "geometry": { "type": "MultiPoint", "coordinates": [ [ -114.491618, 33.276701, 0.0 ] ] } },
{ "type": "Feature", "properties": { "GAZ_ID": "239013", "GAZ_NAME": "Mount Barrow", "GAZ_FEATUR": "Summit", "FEATURE_CO": "15048", "GAZ_ELEVAT": "659", "DATELASTED": "2016\/12\/06", "ISCONFLATE": "1", "GAZ_CELLID": "30485", "POPULATION": "0", "SEQUENCE": "0", "GLOBALID": null }, "geometry": { "type": "MultiPoint", "coordinates": [ [ -114.945244, 33.150037, 0.0 ] ] } },
{ "type": "Feature", "properties": { "GAZ_ID": "251960", "GAZ_NAME": "Sawtooth Mountain", "GAZ_FEATUR": "Summit", "FEATURE_CO": "15048", "GAZ_ELEVAT": "439", "DATELASTED": null, "ISCONFLATE": "1", "GAZ_CELLID": "30485", "POPULATION": "0", "SEQUENCE": "0", "GLOBALID": null }, "geometry": { "type": "MultiPoint", "coordinates": [ [ -114.97469, 33.168925, 0.0 ] ] } },
{ "type": "Feature", "properties": { "GAZ_ID": "1660800", "GAZ_NAME": "Inperial Gables", "GAZ_FEATUR": "Populated Place", "FEATURE_CO": "99904", "GAZ_ELEVAT": "391", "DATELASTED": null, "ISCONFLATE": "1", "GAZ_CELLID": "30485", "POPULATION": "0", "SEQUENCE": "0", "GLOBALID": null }, "geometry": { "type": "MultiPoint", "coordinates": [ [ -114.929133, 33.127538, 0.0 ] ] } },
{ "type": "Feature", "properties": { "GAZ_ID": "8792", "GAZ_NAME": "North Trigo Peaks", "GAZ_FEATUR": "Summit", "FEATURE_CO": "15048", "GAZ_ELEVAT": "638", "DATELASTED": null, "ISCONFLATE": "1", "GAZ_CELLID": "32480", "POPULATION": "0", "SEQUENCE": "0", "GLOBALID": null }, "geometry": { "type": "MultiPoint", "coordinates": [ [ -114.418839, 33.466973, 0.0 ] ] } },
{ "type": "Feature", "properties": { "GAZ_ID": "11647", "GAZ_NAME": "South Trigo Peaks", "GAZ_FEATUR": "Summit", "FEATURE_CO": "15048", "GAZ_ELEVAT": "368", "DATELASTED": null, "ISCONFLATE": "1", "GAZ_CELLID": "45667", "POPULATION": "0", "SEQUENCE": "0", "GLOBALID": null }, "geometry": { "type": "MultiPoint", "coordinates": [ [ -114.38356, 33.426974, 0.0 ] ] } },
{ "type": "Feature", "properties": { "GAZ_ID": "1660571", "GAZ_NAME": "Dunes", "GAZ_FEATUR": "Populated Place", "FEATURE_CO": "99904", "GAZ_ELEVAT": "101", "DATELASTED": "2016\/11\/15", "ISCONFLATE": "1", "GAZ_CELLID": "32966", "POPULATION": "0", "SEQUENCE": "0", "GLOBALID": null }, "geometry": { "type": "MultiPoint", "coordinates": [ [ -114.797181, 32.783102, 0.0 ] ] } },
{ "type": "Feature", "properties": { "GAZ_ID": "1661199", "GAZ_NAME": "Pasadena Peak", "GAZ_FEATUR": "Summit", "FEATURE_CO": "15048", "GAZ_ELEVAT": "468", "DATELASTED": null, "ISCONFLATE": "1", "GAZ_CELLID": "32966", "POPULATION": "0", "SEQUENCE": "0", "GLOBALID": null }, "geometry": { "type": "MultiPoint", "coordinates": [ [ -114.775792, 32.849489, 0.0 ] ] } },
{ "type": "Feature", "properties": { "GAZ_ID": "2025252", "GAZ_NAME": "Felicity", "GAZ_FEATUR": "Populated Place", "FEATURE_CO": "99904", "GAZ_ELEVAT": "86", "DATELASTED": "2007\/01\/15", "ISCONFLATE": "1", "GAZ_CELLID": "70351", "POPULATION": "0", "SEQUENCE": "0", "GLOBALID": null }, "geometry": { "type": "MultiPoint", "coordinates": [ [ -114.7653, 32.7503, 0.0 ] ] } },
{ "type": "Feature", "properties": { "GAZ_ID": "247293", "GAZ_NAME": "Pasadena Mountain", "GAZ_FEATUR": "Summit", "FEATURE_CO": "15048", "GAZ_ELEVAT": "438", "DATELASTED": "2016\/12\/13", "ISCONFLATE": "1", "GAZ_CELLID": "32966", "POPULATION": "0", "SEQUENCE": "0", "GLOBALID": null }, "geometry": { "type": "MultiPoint", "coordinates": [ [ -114.763847, 32.820323, 0.0 ] ] } },
{ "type": "Feature", "properties": { "GAZ_ID": "247468", "GAZ_NAME": "Pilot Knob Mesa", "GAZ_FEATUR": "Summit", "FEATURE_CO": "15048", "GAZ_ELEVAT": "212", "DATELASTED": null, "ISCONFLATE": "1", "GAZ_CELLID": "50198", "POPULATION": "0", "SEQUENCE": "0", "GLOBALID": null }, "geometry": { "type": "MultiPoint", "coordinates": [ [ -114.842184, 32.785324, 0.0 ] ] } },
{ "type": "Feature", "properties": { "GAZ_ID": "1661133", "GAZ_NAME": "Obregon", "GAZ_FEATUR": "Populated Place", "FEATURE_CO": "99904", "GAZ_ELEVAT": "202", "DATELASTED": null, "ISCONFLATE": "1", "GAZ_CELLID": "32966", "POPULATION": "0", "SEQUENCE": "0", "GLOBALID": null }, "geometry": { "type": "MultiPoint", "coordinates": [ [ -114.789126, 32.8581, 0.0 ] ] } },
{ "type": "Feature", "properties": { "GAZ_ID": "2025251", "GAZ_NAME": "Felicity Post Office", "GAZ_FEATUR": "Post Office", "FEATURE_CO": "78006", "GAZ_ELEVAT": "86", "DATELASTED": "2007\/01\/16", "ISCONFLATE": "1", "GAZ_CELLID": "32966", "POPULATION": "0", "SEQUENCE": "0", "GLOBALID": null }, "geometry": { "type": "MultiPoint", "coordinates": [ [ -114.765, 32.750278, 0.0 ] ] } },
{ "type": "Feature", "properties": { "GAZ_ID": "249993", "GAZ_NAME": "Stud Mountain", "GAZ_FEATUR": "Summit", "FEATURE_CO": "15048", "GAZ_ELEVAT": "613", "DATELASTED": null, "ISCONFLATE": "1", "GAZ_CELLID": "32966", "POPULATION": "0", "SEQUENCE": "0", "GLOBALID": null }, "geometry": { "type": "MultiPoint", "coordinates": [ [ -114.75218, 32.857544, 0.0 ] ] } },
{ "type": "Feature", "properties": { "GAZ_ID": "252950", "GAZ_NAME": "Ogilby", "GAZ_FEATUR": "Populated Place", "FEATURE_CO": "99904", "GAZ_ELEVAT": "111", "DATELASTED": "2016\/12\/13", "ISCONFLATE": "1", "GAZ_CELLID": "32966", "POPULATION": "0", "SEQUENCE": "0", "GLOBALID": null }, "geometry": { "type": "MultiPoint", "coordinates": [ [ -114.83885, 32.81699, 0.0 ] ] } },
{ "type": "Feature", "properties": { "GAZ_ID": "1868150", "GAZ_NAME": "Cibola Bridge", "GAZ_FEATUR": "Bridge", "FEATURE_CO": "81012", "GAZ_ELEVAT": "71", "DATELASTED": null, "ISCONFLATE": "1", "GAZ_CELLID": "71168", "POPULATION": "0", "SEQUENCE": "0", "GLOBALID": null }, "geometry": { "type": "MultiPoint", "coordinates": [ [ -114.657735, 33.413085, 0.0 ] ] } },
{ "type": "Feature", "properties": { "GAZ_ID": "2769464", "GAZ_NAME": "Palo Verde Post Office", "GAZ_FEATUR": "Post Office", "FEATURE_CO": "78006", "GAZ_ELEVAT": "71", "DATELASTED": "2018\/02\/08", "ISCONFLATE": "3", "GAZ_CELLID": "71168", "POPULATION": "0", "SEQUENCE": "0", "GLOBALID": null }, "geometry": { "type": "MultiPoint", "coordinates": [ [ -114.732732, 33.432679, 0.0 ] ] } },
{ "type": "Feature", "properties": { "GAZ_ID": "247179", "GAZ_NAME": "Palo Verde Mesa", "GAZ_FEATUR": "Summit", "FEATURE_CO": "15048", "GAZ_ELEVAT": "149", "DATELASTED": null, "ISCONFLATE": "1", "GAZ_CELLID": "28304", "POPULATION": "0", "SEQUENCE": "0", "GLOBALID": null }, "geometry": { "type": "MultiPoint", "coordinates": [ [ -114.748571, 33.475584, 0.0 ] ] } },
{ "type": "Feature", "properties": { "GAZ_ID": "2928", "GAZ_NAME": "Cibola Bridge", "GAZ_FEATUR": "Bridge", "FEATURE_CO": "81012", "GAZ_ELEVAT": "71", "DATELASTED": null, "ISCONFLATE": "1", "GAZ_CELLID": "71168", "POPULATION": "0", "SEQUENCE": "0", "GLOBALID": null }, "geometry": { "type": "MultiPoint", "coordinates": [ [ -114.657735, 33.412808, 0.0 ] ] } },
{ "type": "Feature", "properties": { "GAZ_ID": "247181", "GAZ_NAME": "Palo Verde Peak", "GAZ_FEATUR": "Summit", "FEATURE_CO": "15048", "GAZ_ELEVAT": "500", "DATELASTED": null, "ISCONFLATE": "1", "GAZ_CELLID": "34043", "POPULATION": "0", "SEQUENCE": "0", "GLOBALID": null }, "geometry": { "type": "MultiPoint", "coordinates": [ [ -114.776905, 33.329477, 0.0 ] ] } },
{ "type": "Feature", "properties": { "GAZ_ID": "242296", "GAZ_NAME": "Flat Tops", "GAZ_FEATUR": "Summit", "FEATURE_CO": "15048", "GAZ_ELEVAT": "449", "DATELASTED": null, "ISCONFLATE": "1", "GAZ_CELLID": "34043", "POPULATION": "0", "SEQUENCE": "0", "GLOBALID": null }, "geometry": { "type": "MultiPoint", "coordinates": [ [ -114.857463, 33.361698, 0.0 ] ] } },
{ "type": "Feature", "properties": { "GAZ_ID": "24028", "GAZ_NAME": "Three Point Bend", "GAZ_FEATUR": "Bend", "FEATURE_CO": "15016", "GAZ_ELEVAT": "116", "DATELASTED": null, "ISCONFLATE": "1", "GAZ_CELLID": "35002", "POPULATION": "0", "SEQUENCE": "0", "GLOBALID": null }, "geometry": { "type": "MultiPoint", "coordinates": [ [ -114.58412, 33.050039, 0.0 ] ] } },
{ "type": "Feature", "properties": { "GAZ_ID": "24027", "GAZ_NAME": "Red Rock Gate", "GAZ_FEATUR": "Bend", "FEATURE_CO": "15016", "GAZ_ELEVAT": "59", "DATELASTED": null, "ISCONFLATE": "1", "GAZ_CELLID": "35002", "POPULATION": "0", "SEQUENCE": "0", "GLOBALID": null }, "geometry": { "type": "MultiPoint", "coordinates": [ [ -114.567452, 33.033373, 0.0 ] ] } },
{ "type": "Feature", "properties": { "GAZ_ID": "252169", "GAZ_NAME": "Rojo Grande", "GAZ_FEATUR": "Summit", "FEATURE_CO": "15048", "GAZ_ELEVAT": "202", "DATELASTED": null, "ISCONFLATE": "1", "GAZ_CELLID": "35002", "POPULATION": "0", "SEQUENCE": "0", "GLOBALID": null }, "geometry": { "type": "MultiPoint", "coordinates": [ [ -114.606065, 33.016707, 0.0 ] ] } },
{ "type": "Feature", "properties": { "GAZ_ID": "2726161", "GAZ_NAME": "Whitley Bridge", "GAZ_FEATUR": "Arch", "FEATURE_CO": "15002", "GAZ_ELEVAT": "123", "DATELASTED": null, "ISCONFLATE": "1", "GAZ_CELLID": "35002", "POPULATION": "0", "SEQUENCE": "0", "GLOBALID": null }, "geometry": { "type": "MultiPoint", "coordinates": [ [ -114.581944, 33.002778, 0.0 ] ] } },
{ "type": "Feature", "properties": { "GAZ_ID": "1661216", "GAZ_NAME": "Picacho", "GAZ_FEATUR": "Populated Place", "FEATURE_CO": "99904", "GAZ_ELEVAT": "62", "DATELASTED": "2016\/12\/13", "ISCONFLATE": "1", "GAZ_CELLID": "35002", "POPULATION": "0", "SEQUENCE": "0", "GLOBALID": null }, "geometry": { "type": "MultiPoint", "coordinates": [ [ -114.611065, 33.023095, 0.0 ] ] } },
{ "type": "Feature", "properties": { "GAZ_ID": "24026", "GAZ_NAME": "Sleepers Bend", "GAZ_FEATUR": "Bend", "FEATURE_CO": "15016", "GAZ_ELEVAT": "154", "DATELASTED": null, "ISCONFLATE": "1", "GAZ_CELLID": "35002", "POPULATION": "0", "SEQUENCE": "0", "GLOBALID": null }, "geometry": { "type": "MultiPoint", "coordinates": [ [ -114.534117, 33.016706, 0.0 ] ] } },
{ "type": "Feature", "properties": { "GAZ_ID": "1667822", "GAZ_NAME": "Arrowweed Spring", "GAZ_FEATUR": "Spring", "FEATURE_CO": "45800", "GAZ_ELEVAT": "169", "DATELASTED": "2016\/10\/31", "ISCONFLATE": "1", "GAZ_CELLID": "35007", "POPULATION": "0", "SEQUENCE": "0", "GLOBALID": null }, "geometry": { "type": "MultiPoint", "coordinates": [ [ -114.746904, 33.193925, 0.0 ] ] } },
{ "type": "Feature", "properties": { "GAZ_ID": "1661203", "GAZ_NAME": "Paymaster Landing", "GAZ_FEATUR": "Populated Place", "FEATURE_CO": "99904", "GAZ_ELEVAT": "65", "DATELASTED": null, "ISCONFLATE": "1", "GAZ_CELLID": "35007", "POPULATION": "0", "SEQUENCE": "0", "GLOBALID": null }, "geometry": { "type": "MultiPoint", "coordinates": [ [ -114.68968, 33.245868, 0.0 ] ] } },
{ "type": "Feature", "properties": { "GAZ_ID": "2726160", "GAZ_NAME": "Arturos Bridge", "GAZ_FEATUR": "Arch", "FEATURE_CO": "15002", "GAZ_ELEVAT": "257", "DATELASTED": null, "ISCONFLATE": "1", "GAZ_CELLID": "35010", "POPULATION": "0", "SEQUENCE": "0", "GLOBALID": null }, "geometry": { "type": "MultiPoint", "coordinates": [ [ -114.650556, 32.940556, 0.0 ] ] } },
{ "type": "Feature", "properties": { "GAZ_ID": "1661217", "GAZ_NAME": "Picacho Peak", "GAZ_FEATUR": "Summit", "FEATURE_CO": "15048", "GAZ_ELEVAT": "399", "DATELASTED": null, "ISCONFLATE": "1", "GAZ_CELLID": "35010", "POPULATION": "0", "SEQUENCE": "0", "GLOBALID": null }, "geometry": { "type": "MultiPoint", "coordinates": [ [ -114.663567, 32.972541, 0.0 ] ] } },
{ "type": "Feature", "properties": { "GAZ_ID": "1661206", "GAZ_NAME": "Pebble Mountain", "GAZ_FEATUR": "Summit", "FEATURE_CO": "15048", "GAZ_ELEVAT": "307", "DATELASTED": null, "ISCONFLATE": "1", "GAZ_CELLID": "35010", "POPULATION": "0", "SEQUENCE": "0", "GLOBALID": null }, "geometry": { "type": "MultiPoint", "coordinates": [ [ -114.638288, 32.926709, 0.0 ] ] } },
{ "type": "Feature", "properties": { "GAZ_ID": "240277", "GAZ_NAME": "Carrizo Spring", "GAZ_FEATUR": "Spring", "FEATURE_CO": "45800", "GAZ_ELEVAT": "97", "DATELASTED": null, "ISCONFLATE": "1", "GAZ_CELLID": "35013", "POPULATION": "0", "SEQUENCE": "0", "GLOBALID": null }, "geometry": { "type": "MultiPoint", "coordinates": [ [ -114.688846, 33.021151, 0.0 ] ] } },
{ "type": "Feature", "properties": { "GAZ_ID": "247874", "GAZ_NAME": "Quartz Peak", "GAZ_FEATUR": "Summit", "FEATURE_CO": "15048", "GAZ_ELEVAT": "648", "DATELASTED": "2016\/12\/13", "ISCONFLATE": "1", "GAZ_CELLID": "36762", "POPULATION": "0", "SEQUENCE": "0", "GLOBALID": null }, "geometry": { "type": "MultiPoint", "coordinates": [ [ -114.823018, 33.089205, 0.0 ] ] } },
{ "type": "Feature", "properties": { "GAZ_ID": "247408", "GAZ_NAME": "Peter Kane Water Hole", "GAZ_FEATUR": "Spring", "FEATURE_CO": "45800", "GAZ_ELEVAT": "341", "DATELASTED": "2016\/12\/13", "ISCONFLATE": "1", "GAZ_CELLID": "36762", "POPULATION": "0", "SEQUENCE": "0", "GLOBALID": null }, "geometry": { "type": "MultiPoint", "coordinates": [ [ -114.848019, 33.113094, 0.0 ] ] } },
{ "type": "Feature", "properties": { "GAZ_ID": "239421", "GAZ_NAME": "Black Mountain", "GAZ_FEATUR": "Summit", "FEATURE_CO": "15048", "GAZ_ELEVAT": "646", "DATELASTED": null, "ISCONFLATE": "1", "GAZ_CELLID": "36762", "POPULATION": "0", "SEQUENCE": "0", "GLOBALID": null }, "geometry": { "type": "MultiPoint", "coordinates": [ [ -114.828296, 33.054762, 0.0 ] ] } },
{ "type": "Feature", "properties": { "GAZ_ID": "247407", "GAZ_NAME": "Peter Kane Mountain", "GAZ_FEATUR": "Summit", "FEATURE_CO": "15048", "GAZ_ELEVAT": "627", "DATELASTED": null, "ISCONFLATE": "1", "GAZ_CELLID": "36762", "POPULATION": "0", "SEQUENCE": "0", "GLOBALID": null }, "geometry": { "type": "MultiPoint", "coordinates": [ [ -114.823018, 33.085039, 0.0 ] ] } },
{ "type": "Feature", "properties": { "GAZ_ID": "12722", "GAZ_NAME": "Trip Mountain", "GAZ_FEATUR": "Summit", "FEATURE_CO": "15048", "GAZ_ELEVAT": "579", "DATELASTED": null, "ISCONFLATE": "1", "GAZ_CELLID": "37333", "POPULATION": "0", "SEQUENCE": "0", "GLOBALID": null }, "geometry": { "type": "MultiPoint", "coordinates": [ [ -114.443838, 33.222535, 0.0 ] ] } },
{ "type": "Feature", "properties": { "GAZ_ID": "10047", "GAZ_NAME": "Red Hill", "GAZ_FEATUR": "Summit", "FEATURE_CO": "15048", "GAZ_ELEVAT": "380", "DATELASTED": null, "ISCONFLATE": "1", "GAZ_CELLID": "37333", "POPULATION": "0", "SEQUENCE": "0", "GLOBALID": null }, "geometry": { "type": "MultiPoint", "coordinates": [ [ -114.432726, 33.15587, 0.0 ] ] } },
{ "type": "Feature", "properties": { "GAZ_ID": "2883", "GAZ_NAME": "Chocolate Mountains", "GAZ_FEATUR": "Summit", "FEATURE_CO": "15048", "GAZ_ELEVAT": "314", "DATELASTED": null, "ISCONFLATE": "1", "GAZ_CELLID": "37333", "POPULATION": "0", "SEQUENCE": "0", "GLOBALID": null }, "geometry": { "type": "MultiPoint", "coordinates": [ [ -114.392169, 33.184758, 0.0 ] ] } },
{ "type": "Feature", "properties": { "GAZ_ID": "2883", "GAZ_NAME": "Chocolate Mountains", "GAZ_FEATUR": "Summit", "FEATURE_CO": "15048", "GAZ_ELEVAT": "314", "DATELASTED": null, "ISCONFLATE": "1", "GAZ_CELLID": "37333", "POPULATION": "0", "SEQUENCE": "0", "GLOBALID": null }, "geometry": { "type": "MultiPoint", "coordinates": [ [ -114.473283, 33.110871, 0.0 ] ] } },
{ "type": "Feature", "properties": { "GAZ_ID": "250480", "GAZ_NAME": "Thumb Peak", "GAZ_FEATUR": "Summit", "FEATURE_CO": "15048", "GAZ_ELEVAT": "317", "DATELASTED": "2012\/03\/13", "ISCONFLATE": "1", "GAZ_CELLID": "45040", "POPULATION": "0", "SEQUENCE": "0", "GLOBALID": null }, "geometry": { "type": "MultiPoint", "coordinates": [ [ -114.866352, 33.406385, 0.0 ] ] } },
{ "type": "Feature", "properties": { "GAZ_ID": "247179", "GAZ_NAME": "Palo Verde Mesa", "GAZ_FEATUR": "Summit", "FEATURE_CO": "15048", "GAZ_ELEVAT": "149", "DATELASTED": null, "ISCONFLATE": "1", "GAZ_CELLID": "28304", "POPULATION": "0", "SEQUENCE": "0", "GLOBALID": null }, "geometry": { "type": "MultiPoint", "coordinates": [ [ -114.774683, 33.468639, 0.0 ] ] } },
{ "type": "Feature", "properties": { "GAZ_ID": "240652", "GAZ_NAME": "Clapp Spring", "GAZ_FEATUR": "Spring", "FEATURE_CO": "45800", "GAZ_ELEVAT": "179", "DATELASTED": "2016\/07\/22", "ISCONFLATE": "1", "GAZ_CELLID": "45040", "POPULATION": "0", "SEQUENCE": "0", "GLOBALID": null }, "geometry": { "type": "MultiPoint", "coordinates": [ [ -114.85663, 33.411141, 0.0 ] ] } }
]
}
